"","housenumber","street","city","state","zip","country"
"1","House Number Not Found","Street Not Found","Atlanta","Georgia","30303","United States of America"
"2","House Number Not Found","Fairground Road","Hurricane","Virginia","24293","United States of America"
"3","House Number Not Found","Street Not Found","Amagansett","New York","11930","United States of America"
"4","7","Dauphin Street","Mobile","Alabama","36602","United States of America"
"5","House Number Not Found","Orange Street","Jacksonville","Florida","32202","United States of America"
"9","309","East 11th Street","Austin","Texas","78701","United States of America"
"11","House Number Not Found","Street Not Found","Anna's Retreat","United States Virgin Islands","00802","United States of America"
"13","House Number Not Found","Street Not Found","Jefferson","Kansas","67340","United States of America"
"15","House Number Not Found","Street Not Found","San Francisco","California","94103","United States of America"
"16","House Number Not Found","Street Not Found","Washington","District of Columbia","20420","United States of America"
"17","House Number Not Found","Street Not Found","Pomona","California","91766","United States of America"
"18","House Number Not Found","Street Not Found","Las Vegas","Nevada","89101","United States of America"
"19","House Number Not Found","Street Not Found","Tampa","Florida","33602","United States of America"
"20","House Number Not Found","Street Not Found","West Liberty","Ohio","Postcode Not Found","United States of America"
"24","3741","West Chester Pike","Newtown Township","Pennsylvania","19073","United States of America"
"25","House Number Not Found","Street Not Found","Baltimore","Maryland","21202","United States of America"
"26","House Number Not Found","Street Not Found","Sharpes Hill","South Carolina","29053","United States of America"
"27","House Number Not Found","Ohlone Way","Emeryville","California","94608","United States of America"
"28","House Number Not Found","Street Not Found","Denmark","Maine","04022","United States of America"
"29","House Number Not Found","Street Not Found","Bulverde","Texas","28260","United States of America"
"30","House Number Not Found","Street Not Found","City Not Found","Iowa","50141","United States of America"
"32","87","Stephen Street","Stamford","Connecticut","06902","United States of America"
"34","407-479","Street Not Found","Nashville-Davidson","Tennessee","37213","United States of America"
"36","House Number Not Found","Street Not Found","Baltimore","Maryland","21202","United States of America"
"38","House Number Not Found","Street Not Found","Tanager Forest","Maryland","21108","United States of America"
"40","House Number Not Found","Street Not Found","Bartlesville","Oklahoma","74004","United States of America"
"42","House Number Not Found","Street Not Found","Las Vegas","Nevada","89101","United States of America"
"43","House Number Not Found","Street Not Found","Las Vegas","Nevada","89101","United States of America"
"44","150","Greenwich Street","New York City","New York","10007","United States of America"
"46","House Number Not Found","Street Not Found","Houston","Texas","77003:77007","United States of America"
"52","House Number Not Found","Street Not Found","City Not Found","Mississippi","39759","United States of America"
"53","House Number Not Found","Street Not Found","Tulsa","Oklahoma","74128","United States of America"
"54","House Number Not Found","Street Not Found","Houston","Texas","77003:77007","United States of America"
"57","House Number Not Found","Street Not Found","Hammond","Louisiana","70403","United States of America"
"58","House Number Not Found","Street Not Found","City Not Found","Oklahoma","Postcode Not Found","United States of America"
"59","350","Canal Walk","Indianapolis","Indiana","46202","United States of America"
"60","House Number Not Found","Street Not Found","City Not Found","Utah","Postcode Not Found","United States of America"
"61","986","Westchester Avenue","New York City","New York","10459","United States of America"
"62","House Number Not Found","Street Not Found","La Verne","California","91750","United States of America"
"63","House Number Not Found","Market Street","Chattanooga","Tennessee","37408","United States of America"
"67","House Number Not Found","Street Not Found","Baton Rouge","Louisiana","70802","United States of America"
"70","House Number Not Found","Street Not Found","Parkland","Florida","33076","United States of America"
"72","House Number Not Found","Street Not Found","Sliders","Virginia","Postcode Not Found","United States of America"
"76","House Number Not Found","Street Not Found","Fresno","California","93702","United States of America"
"78","House Number Not Found","Street Not Found","Fresno","California","93702","United States of America"
"80","House Number Not Found","Street Not Found","Longview","Washington","98626","United States of America"
"81","House Number Not Found","Street Not Found","Tetersburg","Indiana","46045","United States of America"
"83","150","Greenwich Street","New York City","New York","10007","United States of America"
"87","657","Broadway","New York City","New York","10003","United States of America"
"88","House Number Not Found","Dickinson Avenue","Greenville","North Carolina","27834","United States of America"
"89","House Number Not Found","Street Not Found","Jefferson","Kansas","67340","United States of America"
"90","House Number Not Found","Street Not Found","West Liberty","Ohio","Postcode Not Found","United States of America"
"91","House Number Not Found","Vine Street","Lafayette","Louisiana","70501","United States of America"
"92","150","Greenwich Street","New York City","New York","10007","United States of America"
"94","1635","Farrington Road","Bells","North Carolina","27523","United States of America"
"95","House Number Not Found","Street Not Found","New Caney","Texas","77357","United States of America"
"98","House Number Not Found","Street Not Found","Los Angeles","California","90012","United States of America"
"99","House Number Not Found","Street Not Found","Bloomington","Minnesota","55420","United States of America"
"100","House Number Not Found","Street Not Found","Los Angeles","California","90012","United States of America"
"108","House Number Not Found","Warner Bridge Road","Sims Spring","Tennessee","37160","United States of America"
"110","House Number Not Found","Street Not Found","City Not Found","Missouri","65401","United States of America"
"113","House Number Not Found","Street Not Found","Labadieville","Louisiana","70372","United States of America"
"115","House Number Not Found","Street Not Found","San Angelo","Texas","76903","United States of America"
"116","House Number Not Found","Street Not Found","Sharpes Hill","South Carolina","29053","United States of America"
"118","26","City Center","Portland","Maine","04101","United States of America"
"119","House Number Not Found","Street Not Found","Hershey","Pennsylvania","17033-1712","United States of America"
"120","House Number Not Found","Street Not Found","Jefferson","Kansas","67340","United States of America"
"121","700","5th Avenue","Seattle","Washington","98104","United States of America"
"123","House Number Not Found","Street Not Found","Jefferson","Kansas","67340","United States of America"
"124","House Number Not Found","Street Not Found","Baltimore","Maryland","21202","United States of America"
"125","22","East Leigh Street","Richmond City","Virginia","23219","United States of America"
"127","1635","Farrington Road","Bells","North Carolina","27523","United States of America"
"129","150","Greenwich Street","New York City","New York","10007","United States of America"
"131","110","North Tejon Street","Colorado Springs","Colorado","80903","United States of America"
"135","House Number Not Found","Street Not Found","Portland","Oregon","97258","United States of America"
"136","House Number Not Found","Street Not Found","Chicago","Illinois","60646","United States of America"
"138","House Number Not Found","Vine Street","Lafayette","Louisiana","70501","United States of America"
"139","House Number Not Found","Street Not Found","Macon","Georgia","31201","United States of America"
"141","House Number Not Found","Street Not Found","Sharpes Hill","South Carolina","29053","United States of America"
"145","1304","Elati Street","Denver","Colorado","80204","United States of America"
"146","1304","Elati Street","Denver","Colorado","80204","United States of America"
"147","House Number Not Found","Street Not Found","Panama City","Florida","32401","United States of America"
"148","House Number Not Found","Street Not Found","Houston","Texas","77003:77007","United States of America"
"149","House Number Not Found","Street Not Found","West Linn","Oregon","97027","United States of America"
"150","House Number Not Found","Ventura Boulevard","Los Angeles","California","91365","United States of America"
"154","House Number Not Found","Street Not Found","Jefferson","Kansas","67340","United States of America"
"155","House Number Not Found","East 5th Street","Dayton","Ohio","45403","United States of America"
"156","309","East 11th Street","Austin","Texas","78701","United States of America"
"157","House Number Not Found","Street Not Found","Houston","Texas","77003:77007","United States of America"
"161","22","East Leigh Street","Richmond City","Virginia","23219","United States of America"
"166","House Number Not Found","Street Not Found","Sunny Isles Beach","Florida","33160","United States of America"
"168","House Number Not Found","Crosby Boulevard Southwest","Tumwater","Washington","98501-5801","United States of America"
"169","House Number Not Found","4th Street","Iron Mountain","Michigan","49802","United States of America"
"171","1530","11th Avenue South","Birmingham","Alabama","35205","United States of America"
"173","1304","Elati Street","Denver","Colorado","80204","United States of America"
"175","House Number Not Found","Street Not Found","Atlanta","Texas","75551","United States of America"
"176","House Number Not Found","Street Not Found","New Orleans","Louisiana","70012","United States of America"
"177","House Number Not Found","Street Not Found","Jefferson","Kansas","67340","United States of America"
"178","House Number Not Found","Street Not Found","Readlyn","Iowa","50668","United States of America"
"180","House Number Not Found","Street Not Found","Sportsmen Acres Community","Oklahoma","Postcode Not Found","United States of America"
"181","150","Greenwich Street","New York City","New York","10007","United States of America"
"182","House Number Not Found","Street Not Found","New Orleans","Louisiana","LA 70116","United States of America"
"183","House Number Not Found","Street Not Found","Chula Vista","California","91950","United States of America"
"184","411","South Houston Street","Dallas","Texas","75202","United States of America"
"185","House Number Not Found","Street Not Found","City Not Found","Oklahoma","74447","United States of America"
"188","House Number Not Found","Street Not Found","Dubuque","Iowa","52001","United States of America"
"192","House Number Not Found","Street Not Found","Gahanna","Ohio","43230","United States of America"
"193","House Number Not Found","East Columbus Street","Kenton","Ohio","43326","United States of America"
"194","House Number Not Found","Street Not Found","Jefferson","Kansas","67340","United States of America"
"196","House Number Not Found","Street Not Found","City Not Found","North Dakota","Postcode Not Found","United States of America"
"197","House Number Not Found","Street Not Found","Batesville","Arkansas","72501","United States of America"
"199","House Number Not Found","Street Not Found","West","Texas","76691","United States of America"
"201","House Number Not Found","Street Not Found","City Not Found","Georgia","Postcode Not Found","United States of America"
"202","House Number Not Found","Street Not Found","Bowie","Maryland","20715","United States of America"
"203","House Number Not Found","Street Not Found","Los Angeles","California","90017","United States of America"
"206","House Number Not Found","Street Not Found","Washington","District of Columbia","20420","United States of America"
"207","House Number Not Found","Street Not Found","Reno","Nevada","89505","United States of America"
"208","House Number Not Found","Street Not Found","Fresno","California","93702","United States of America"
"209","House Number Not Found","Street Not Found","Charleston","Illinois","61920","United States of America"
"210","House Number Not Found","Street Not Found","Salt Lake City","Utah","84139","United States of America"
"211","House Number Not Found","Street Not Found","Saint Petersburg","Florida","33701","United States of America"
"212","House Number Not Found","South Ridgewood Avenue","Ormond Beach","Florida","32174","United States of America"
"215","House Number Not Found","Street Not Found","Bellingham","Washington","98225-5215","United States of America"
"222","House Number Not Found","Street Not Found","San Diego","California","92101","United States of America"
"223","House Number Not Found","Street Not Found","San Antonio","Texas","78216","United States of America"
"224","House Number Not Found","Street Not Found","Royal Oak","Michigan","48067","United States of America"
"225","House Number Not Found","Street Not Found","Fergus Falls","Minnesota","56537","United States of America"
"228","151","North Franklin Street","Chicago","Illinois","60606","United States of America"
"231","1306","University Avenue","Oxford","Mississippi","38655","United States of America"
"232","House Number Not Found","West Fountain Road","City Not Found","Oklahoma","74653","United States of America"
"233","411","South Houston Street","Dallas","Texas","75202","United States of America"
"236","House Number Not Found","Street Not Found","Independence","Kansas","67301","United States of America"
"238","House Number Not Found","Street Not Found","City Not Found","Kansas","67337","United States of America"
"239","House Number Not Found","Market Street","Chattanooga","Tennessee","37408","United States of America"
"241","House Number Not Found","Street Not Found","Virginia Beach","Virginia","23451","United States of America"
"242","House Number Not Found","Street Not Found","City Not Found","Arkansas","72082:72102:72143","United States of America"
"243","House Number Not Found","Street Not Found","Madison","Alabama","35758","United States of America"
"244","House Number Not Found","Vine Street","Lafayette","Louisiana","70501","United States of America"
"245","House Number Not Found","Street Not Found","Sharpes Hill","South Carolina","29053","United States of America"
"246","House Number Not Found","Street Not Found","St. Louis","Missouri","63109","United States of America"
"248","House Number Not Found","Street Not Found","Minneapolis","Minnesota","55401","United States of America"
"250","House Number Not Found","Street Not Found","Baton Rouge","Louisiana","70802","United States of America"
"251","House Number Not Found","Street Not Found","Charleston","South Carolina","29402","United States of America"
"252","House Number Not Found","Street Not Found","Los Angeles","California","90012","United States of America"
"253","House Number Not Found","Street Not Found","Jefferson","Kansas","67340","United States of America"
"256","House Number Not Found","Street Not Found","Redhouse","Kentucky","Postcode Not Found","United States of America"
"258","House Number Not Found","Street Not Found","Tetersburg","Indiana","46045","United States of America"
"261","House Number Not Found","Street Not Found","Coral Springs","Florida","33076","United States of America"
"262","House Number Not Found","3rd Street","Detroit","Michigan","48226","United States of America"
"263","House Number Not Found","River Walk","San Antonio","Texas","78205","United States of America"
"265","House Number Not Found","Street Not Found","Pittsburgh","Pennsylvania","15219","United States of America"
"267","House Number Not Found","Street Not Found","Fairfax","Virginia","22030","United States of America"
"268","House Number Not Found","Street Not Found","Philadelphia","Pennsylvania","19102","United States of America"
"269","House Number Not Found","Street Not Found","Chagrin Falls","Ohio","44022","United States of America"
"271","House Number Not Found","Street Not Found","Fresno","California","93702","United States of America"
"272","House Number Not Found","South 1st Street","Estherville","Iowa","51334","United States of America"
"274","House Number Not Found","Orange Street","Jacksonville","Florida","32202","United States of America"
"275","House Number Not Found","Street Not Found","Charleston","South Carolina","29401","United States of America"
"276","House Number Not Found","Street Not Found","Morris","Illinois","60450","United States of America"
"278","House Number Not Found","Street Not Found","Baltimore","Maryland","21202","United States of America"
"279","House Number Not Found","Street Not Found","Sharpes Hill","South Carolina","29053","United States of America"
"281","809","Piper Avenue","Sunnyvale","California","94807","United States of America"
"282","House Number Not Found","Vine Street","Lafayette","Louisiana","70501","United States of America"
"283","House Number Not Found","Street Not Found","Los Angeles","California","90066","United States of America"
"285","150","Greenwich Street","New York City","New York","10007","United States of America"
"287","House Number Not Found","Street Not Found","Kansas City","Missouri","64106","United States of America"
"288","House Number Not Found","Street Not Found","City Not Found","Georgia","Postcode Not Found","United States of America"
"289","House Number Not Found","Street Not Found","Jefferson","Kansas","67340","United States of America"
"290","House Number Not Found","Street Not Found","Plumsted Township","New Jersey","08533","United States of America"
"292","House Number Not Found","West Side Highway","Sacramento","California","95814","United States of America"
"294","House Number Not Found","Street Not Found","El Paso","Texas","79901","United States of America"
"295","House Number Not Found","Street Not Found","Philadelphia","Pennsylvania","19102","United States of America"
"296","House Number Not Found","Street Not Found","Emery","Iowa","Postcode Not Found","United States of America"
"297","99 West","South Street","Orlando","Florida","32801","United States of America"
"300","House Number Not Found","Street Not Found","Niles","Illinois","60077-3495","United States of America"
"302","House Number Not Found","Street Not Found","Fort Worth","Texas","76102","United States of America"
"303","House Number Not Found","Street Not Found","Buffalo","New York","14202","United States of America"
"307","House Number Not Found","Street Not Found","Kansas City","Missouri","64106","United States of America"
"309","House Number Not Found","Street Not Found","Le Hunt","Kansas","67301","United States of America"
"310","House Number Not Found","Huey Road","Santa Fe","New Mexico","87585","United States of America"
"311","House Number Not Found","Street Not Found","Jefferson","Kansas","67340","United States of America"
"312","House Number Not Found","Street Not Found","Canton","Ohio","44714","United States of America"
"313","House Number Not Found","Street Not Found","Jefferson","Kansas","67340","United States of America"
"314","House Number Not Found","Street Not Found","Wichita","Kansas","67207","United States of America"
"316","House Number Not Found","Street Not Found","Syracuse","New York","13202","United States of America"
"317","700","5th Avenue","Seattle","Washington","98104","United States of America"
"318","House Number Not Found","Street Not Found","Houston","Texas","77003:77007","United States of America"
"319","House Number Not Found","Street Not Found","Jefferson","Kansas","67340","United States of America"
"321","House Number Not Found","Street Not Found","Bakersfield","California","93301","United States of America"
"322","House Number Not Found","Street Not Found","Baton Rouge","Louisiana","70802","United States of America"
"323","House Number Not Found","Street Not Found","Los Angeles","California","90012","United States of America"
"325","House Number Not Found","Street Not Found","Norfolk","Virginia","23510","United States of America"
"326","House Number Not Found","Newport Southbank Bridge","Newport","Kentucky","45202","United States of America"
"327","House Number Not Found","Street Not Found","Copperas Cove","Texas","76522","United States of America"
"329","House Number Not Found","Street Not Found","Houston","Texas","77003:77007","United States of America"
"330","House Number Not Found","Street Not Found","Yogo Crossing","Montana","Postcode Not Found","United States of America"
"331","House Number Not Found","Street Not Found","City Not Found","Iowa","50141","United States of America"
"332","House Number Not Found","Harding Road","Red Bank","New Jersey","07739","United States of America"
"333","1","Federal Street","Boston","Massachusetts","02110-1301","United States of America"
"336","House Number Not Found","Street Not Found","Los Angeles","California","90012","United States of America"
"338","House Number Not Found","Street Not Found","New Orleans","Louisiana","70012","United States of America"
"339","House Number Not Found","West Monticello Street","Brookhaven","Mississippi","39601","United States of America"
"341","700","5th Avenue","Seattle","Washington","98104","United States of America"
"343","House Number Not Found","Street Not Found","Orland Hills","Illinois","60467","United States of America"
"344","House Number Not Found","Street Not Found","Lexington","Kentucky","40508","United States of America"
"345","House Number Not Found","Street Not Found","Houston","Texas","77003:77007","United States of America"
"346","House Number Not Found","Street Not Found","Golden Valley","North Dakota","Postcode Not Found","United States of America"
"347","House Number Not Found","Golden Pond Drive","Union","Kentucky","41091","United States of America"
"348","House Number Not Found","Union Turnpike","New York City","New York","11366","United States of America"
"349","House Number Not Found","Street Not Found","Sliders","Virginia","Postcode Not Found","United States of America"
"350","House Number Not Found","Street Not Found","Celoron","New York","14720","United States of America"
"351","411","South Houston Street","Dallas","Texas","75202","United States of America"
"352","House Number Not Found","Street Not Found","Springdale","Arkansas","72764","United States of America"
"353","150","Greenwich Street","New York City","New York","10007","United States of America"
"355","House Number Not Found","Harrison Avenue","East Islip","New York","11730","United States of America"
"358","11113","Spring Mountain Drive","Farmington","Arkansas","72730","United States of America"
"359","House Number Not Found","Campus Drive","Moon Township","Pennsylvania","15046","United States of America"
"360","15361","State Route 207","Coles Corner","Washington","98826","United States of America"
"363","House Number Not Found","Street Not Found","Albany","New York","12202","United States of America"
"365","House Number Not Found","Street Not Found","Scarsdale","New York","10583","United States of America"
"366","House Number Not Found","Street Not Found","Birmingham","Alabama","35203","United States of America"
"367","House Number Not Found","Street Not Found","Saint Petersburg","Florida","33701","United States of America"
"368","House Number Not Found","Street Not Found","Freehold Township","New Jersey","07728","United States of America"
"369","House Number Not Found","Street Not Found","Beverly Hills","Louisiana","70461","United States of America"
"371","House Number Not Found","Tremont Street","Elyria","Ohio","44035","United States of America"
"373","House Number Not Found","Street Not Found","Madison","Wisconsin","53715","United States of America"
"376","309","East 11th Street","Austin","Texas","78701","United States of America"
"378","House Number Not Found","Street Not Found","Fresno","California","93702","United States of America"
"379","309","East 11th Street","Austin","Texas","78701","United States of America"
"381","House Number Not Found","Street Not Found","Tanager Forest","Maryland","21108","United States of America"
"382","1392","Atlantic Avenue","New York City","New York","11216","United States of America"
"383","House Number Not Found","Street Not Found","Pittsburgh","Pennsylvania","15219","United States of America"
"384","House Number Not Found","Street Not Found","Bartlesville","Oklahoma","74003","United States of America"
"385","350","Canal Walk","Indianapolis","Indiana","46202","United States of America"
"386","1635","Farrington Road","Bells","North Carolina","27523","United States of America"
"387","House Number Not Found","Street Not Found","Jefferson","Kansas","67340","United States of America"
"388","411","South Houston Street","Dallas","Texas","75202","United States of America"
"389","House Number Not Found","Street Not Found","North Decatur","Georgia","30307","United States of America"
"390","411","South Houston Street","Dallas","Texas","75202","United States of America"
"393","House Number Not Found","Ohlone Way","Emeryville","California","94608","United States of America"
"394","House Number Not Found","Street Not Found","Harrisburg","Pennsylvania","17120","United States of America"
"395","House Number Not Found","Street Not Found","Raleigh","North Carolina","27603","United States of America"
"397","110","North Tejon Street","Colorado Springs","Colorado","80903","United States of America"
"398","3700","West Flamingo Road","Paradise","Nevada","89103","United States of America"
"400","House Number Not Found","Street Not Found","Eason","Oklahoma","74878","United States of America"
"403","House Number Not Found","Street Not Found","Phoenix","Arizona","85004","United States of America"
"404","House Number Not Found","Street Not Found","Jefferson","Kansas","67340","United States of America"
"405","House Number Not Found","Street Not Found","Yoder","Ohio","45804","United States of America"
"406","House Number Not Found","West Grand River Avenue","Brighton","Michigan","48116","United States of America"
"407","House Number Not Found","West 40th Street","Lorain","Ohio","44053","United States of America"
"410","House Number Not Found","Street Not Found","Washington","District of Columbia","20420","United States of America"
"411","House Number Not Found","Street Not Found","Delray Beach","Florida","33483","United States of America"
"412","House Number Not Found","North 3rd Street","De Queen","Arkansas","71832","United States of America"
"413","House Number Not Found","Street Not Found","Los Angeles","California","90012","United States of America"
"414","House Number Not Found","Street Not Found","Jefferson","Kansas","67340","United States of America"
"415","House Number Not Found","Street Not Found","Dr. Phillips","Florida","32819","United States of America"
"417","House Number Not Found","Street Not Found","Philadelphia","Pennsylvania","19102","United States of America"
"418","1","South Main Street","Salinas","California","93901","United States of America"
"420","150","Greenwich Street","New York City","New York","10007","United States of America"
"421","1624","Broadway","Boulder","Colorado","80302","United States of America"
"422","150","Greenwich Street","New York City","New York","10007","United States of America"
"423","House Number Not Found","3rd Street","Detroit","Michigan","48226","United States of America"
"427","House Number Not Found","Village Road","Shallotte","North Carolina","28470","United States of America"
"428","House Number Not Found","Street Not Found","Eason","Oklahoma","74878","United States of America"
"430","House Number Not Found","Street Not Found","Tacoma","Washington","98404-4923","United States of America"
"431","House Number Not Found","Street Not Found","Washington","District of Columbia","20420","United States of America"
"432","House Number Not Found","Street Not Found","Jefferson","Kansas","67340","United States of America"
"433","House Number Not Found","Street Not Found","Roseville","Michigan","48066","United States of America"
"434","House Number Not Found","Street Not Found","Yukon","Oklahoma","73099","United States of America"
"436","House Number Not Found","Street Not Found","Sliders","Virginia","Postcode Not Found","United States of America"
"437","House Number Not Found","Street Not Found","Quincy","Illinois","Postcode Not Found","United States of America"
"438","House Number Not Found","Street Not Found","Jefferson","Kansas","67340","United States of America"
"439","House Number Not Found","Street Not Found","Bailey s Crossroads","Virginia","22204-1099","United States of America"
"441","House Number Not Found","Street Not Found","Winchester","Tennessee","37398","United States of America"
"442","House Number Not Found","Street Not Found","Philadelphia","Pennsylvania","19102","United States of America"
"443","House Number Not Found","Street Not Found","Atlanta","Georgia","30313","United States of America"
"444","House Number Not Found","Street Not Found","San Francisco","California","94110","United States of America"
"446","House Number Not Found","Street Not Found","Minerva","Ohio","44657","United States of America"
"447","House Number Not Found","Street Not Found","Bowling Green","Kentucky","42101","United States of America"
"450","822","North Marshfield Avenue","Chicago","Illinois","60622","United States of America"
"452","House Number Not Found","Street Not Found","New Prague","Minnesota","56071","United States of America"
"455","House Number Not Found","Street Not Found","Irvine","Kentucky","40336","United States of America"
"456","House Number Not Found","Street Not Found","Lawrence","Kansas","66044","United States of America"
"457","9263","Owasso Expressway","Owasso","Oklahoma","74055","United States of America"
"458","House Number Not Found","Street Not Found","City Not Found","Tennessee","Postcode Not Found","United States of America"
"460","House Number Not Found","Street Not Found","Big Run","West Virginia","26217","United States of America"
"461","House Number Not Found","Street Not Found","Sugar Land","Texas","77478","United States of America"
"462","House Number Not Found","River Walk","San Antonio","Texas","78205","United States of America"
"463","House Number Not Found","Cumming Road","Summerville","Georgia","30904","United States of America"
"466","House Number Not Found","Street Not Found","Jefferson","Kansas","67340","United States of America"
"471","House Number Not Found","Street Not Found","Jefferson","Kansas","67340","United States of America"
"472","House Number Not Found","Street Not Found","Jefferson","Kansas","67340","United States of America"
"473","House Number Not Found","Street Not Found","Jefferson","Kansas","67340","United States of America"
"475","House Number Not Found","Street Not Found","Jefferson","Kansas","67340","United States of America"
"476","House Number Not Found","3rd Street","Detroit","Michigan","48226","United States of America"
"478","200","Dodge Street","Racine","Wisconsin","53402","United States of America"
"479","House Number Not Found","Street Not Found","Atlanta","Georgia","30303","United States of America"
"480","House Number Not Found","Street Not Found","Sportsmen Acres Community","Oklahoma","Postcode Not Found","United States of America"
"483","House Number Not Found","12th Street","Oakland","California","94607","United States of America"
"490","150","Greenwich Street","New York City","New York","10007","United States of America"
"491","House Number Not Found","Street Not Found","Riverdale","New Jersey","07457","United States of America"
"493","House Number Not Found","Street Not Found","Jefferson","Kansas","67340","United States of America"
"495","House Number Not Found","Street Not Found","Jefferson","Kansas","67340","United States of America"
"498","House Number Not Found","Street Not Found","Eason","Oklahoma","74878","United States of America"
"499","House Number Not Found","Central Avenue Northeast","Minneapolis","Minnesota","55418","United States of America"
"501","House Number Not Found","Street Not Found","Cambridge Township","Pennsylvania","16403","United States of America"
"502","House Number Not Found","Orange Street","Jacksonville","Florida","32202","United States of America"
"503","House Number Not Found","Street Not Found","Putnam Township","Michigan","48169","United States of America"
"505","1635","Farrington Road","Bells","North Carolina","27523","United States of America"
"506","House Number Not Found","Street Not Found","Philadelphia","Pennsylvania","19102","United States of America"
"507","150","Greenwich Street","New York City","New York","10007","United States of America"
"509","House Number Not Found","Street Not Found","Kansas City","Missouri","64106","United States of America"
"510","101","High Street","West Chicago","Illinois","60185","United States of America"
"513","House Number Not Found","South Knoblock Street","Stillwater","Oklahoma","74074","United States of America"
"515","House Number Not Found","Pine Street","Salina","Kansas","67401","United States of America"
"517","House Number Not Found","Street Not Found","Washington","District of Columbia","20015","United States of America"
"519","151","North Franklin Street","Chicago","Illinois","60606","United States of America"
"522","House Number Not Found","South Knoblock Street","Stillwater","Oklahoma","74074","United States of America"
"523","House Number Not Found","Street Not Found","Las Vegas","Nevada","89101","United States of America"
"525","3710","Richmond Road","New York City","New York","10306","United States of America"
"526","House Number Not Found","Street Not Found","Jefferson","Kansas","67340","United States of America"
"527","House Number Not Found","Street Not Found","Fort Wayne","Indiana","46802","United States of America"
"532","House Number Not Found","Street Not Found","Bakersfield","California","93301","United States of America"
"533","House Number Not Found","Street Not Found","Los Angeles","California","90017","United States of America"
"534","House Number Not Found","Street Not Found","New Orleans","Louisiana","70012","United States of America"
"537","House Number Not Found","Street Not Found","Tuscaloosa","Alabama","35401:35476","United States of America"
"538","500","East Trade Street","Charlotte","North Carolina","28202","United States of America"
"540","101","College Street","Burlington","Vermont","05401","United States of America"
"543","House Number Not Found","Street Not Found","Jefferson","Kansas","67340","United States of America"
"547","523","Fulton Street","New York City","New York","11207","United States of America"
"549","House Number Not Found","Street Not Found","City Not Found","Louisiana","71362","United States of America"
"550","House Number Not Found","Street Not Found","Annapolis","Maryland","21411","United States of America"
"552","House Number Not Found","Street Not Found","Baltimore","Maryland","21202","United States of America"
"553","House Number Not Found","Street Not Found","San Francisco","California","94103","United States of America"
"554","House Number Not Found","Miad Circle","Fronton Trailer Park","Florida","33266","United States of America"
"555","House Number Not Found","Street Not Found","Mountain View","California","94041","United States of America"
"556","House Number Not Found","Street Not Found","Virginia Beach","Virginia","23451","United States of America"
"557","House Number Not Found","Street Not Found","City Not Found","Missouri","65401","United States of America"
"558","House Number Not Found","South Knoblock Street","Stillwater","Oklahoma","74074","United States of America"
"560","House Number Not Found","West Side Highway","Sacramento","California","95814","United States of America"
"561","House Number Not Found","Street Not Found","Kendall","Florida","33176","United States of America"
"563","15","Boynton Street","Boston","Massachusetts","02130","United States of America"
"565","112","West Front Street","Port Angeles","Washington","98362","United States of America"
"566","House Number Not Found","Street Not Found","Fresno","California","93702","United States of America"
"567","House Number Not Found","Street Not Found","Iowa City","Iowa","52240","United States of America"
"570","688","Columbus Avenue","New York City","New York","10025","United States of America"
"571","1304","Elati Street","Denver","Colorado","80204","United States of America"
"572","House Number Not Found","West Homer Street","Chicago","Illinois","690639","United States of America"
"573","House Number Not Found","Street Not Found","Minneapolis","Minnesota","55401","United States of America"
"574","500","East Trade Street","Charlotte","North Carolina","28202","United States of America"
"575","House Number Not Found","Street Not Found","Miami","Florida","33131","United States of America"
"576","House Number Not Found","Street Not Found","Tigard","Oregon","97223","United States of America"
"577","House Number Not Found","Street Not Found","Seaside","California","93955","United States of America"
"578","150","Greenwich Street","New York City","New York","10007","United States of America"
"579","House Number Not Found","Street Not Found","Joplin","Missouri","64801","United States of America"
"580","House Number Not Found","Street Not Found","Sharpes Hill","South Carolina","29053","United States of America"
"584","150","Greenwich Street","New York City","New York","10007","United States of America"
"585","House Number Not Found","Warner Bridge Road","Sims Spring","Tennessee","37160","United States of America"
"589","House Number Not Found","Street Not Found","Washington","District of Columbia","20420","United States of America"
"590","151","North Franklin Street","Chicago","Illinois","60606","United States of America"
"591","House Number Not Found","Street Not Found","Jefferson","Kansas","67340","United States of America"
"592","1","Federal Street","Boston","Massachusetts","02110-1301","United States of America"
"594","House Number Not Found","Street Not Found","Lexington","Kentucky","40508","United States of America"
"595","547","East Oakland Avenue","Tallahassee","Florida","32301","United States of America"
"596","House Number Not Found","Street Not Found","Dover","Delaware","19904","United States of America"
"597","House Number Not Found","Grant Street","Framingham","Massachusetts","01701","United States of America"
"598","150","Greenwich Street","New York City","New York","10007","United States of America"
"599","1","Federal Street","Boston","Massachusetts","02110-1301","United States of America"
"600","House Number Not Found","Street Not Found","Saint Petersburg","Florida","33701","United States of America"
"602","House Number Not Found","Morris Park Avenue","New York City","New York","10461","United States of America"
"603","House Number Not Found","Street Not Found","City Not Found","Minnesota","Postcode Not Found","United States of America"
"604","700","5th Avenue","Seattle","Washington","98104","United States of America"
"605","House Number Not Found","Street Not Found","St. Louis","Missouri","63102-1102","United States of America"
"606","House Number Not Found","Street Not Found","Atlanta","Georgia","30303","United States of America"
"607","House Number Not Found","Street Not Found","San Francisco","California","94103","United States of America"
"608","House Number Not Found","Street Not Found","Richmond","Indiana","47374","United States of America"
"609","House Number Not Found","Street Not Found","Oakbrook Terrace","Illinois","Postcode Not Found","United States of America"
"610","House Number Not Found","Street Not Found","Atlanta","Georgia","30303","United States of America"
"611","House Number Not Found","Street Not Found","Pittsburgh","Pennsylvania","15219","United States of America"
"612","House Number Not Found","Street Not Found","Ronan","Montana","59864","United States of America"
"613","House Number Not Found","Street Not Found","Tetersburg","Indiana","46045","United States of America"
"614","150","Greenwich Street","New York City","New York","10007","United States of America"
"615","House Number Not Found","Street Not Found","Sudbury","Massachusetts","01733","United States of America"
"616","House Number Not Found","Street Not Found","Plumsted Township","New Jersey","08533","United States of America"
"618","House Number Not Found","Street Not Found","Kansas City","Missouri","64106","United States of America"
"619","House Number Not Found","Street Not Found","Eason","Oklahoma","74878","United States of America"
"620","House Number Not Found","Summers Street","Charleston","West Virginia","25301","United States of America"
"621","House Number Not Found","Street Not Found","Plumsted Township","New Jersey","08533","United States of America"
"622","House Number Not Found","Street Not Found","Jefferson","Kansas","67340","United States of America"
"623","House Number Not Found","Street Not Found","Jefferson","Kansas","67340","United States of America"
"624","House Number Not Found","Street Not Found","Sharpes Hill","South Carolina","29053","United States of America"
"625","House Number Not Found","Street Not Found","El Paso","Texas","79901","United States of America"
"626","7341","Franklin Avenue","St. Louis Park","Minnesota","55426","United States of America"
"627","House Number Not Found","Street Not Found","Little River","South Carolina","25982","United States of America"
"628","House Number Not Found","Street Not Found","Sugar Land","Texas","77478","United States of America"
"629","House Number Not Found","Street Not Found","San Diego","California","92101","United States of America"
"630","113","Commonwealth Avenue","Concord","Massachusetts","01742","United States of America"
"631","House Number Not Found","Walnut Street","Newton","Massachusetts","02468","United States of America"
"632","15","Patriots Road","Acton","Massachusetts","01720","United States of America"
"633","House Number Not Found","West Side Highway","Sacramento","California","95814","United States of America"
"634","House Number Not Found","Street Not Found","Greensboro","North Carolina","27405","United States of America"
"635","House Number Not Found","Street Not Found","Portland","Oregon","97258","United States of America"
"636","House Number Not Found","Street Not Found","Jersey City","New Jersey","07304:07306","United States of America"
"637","House Number Not Found","Street Not Found","Town of Avon","Connecticut","06089","United States of America"
"640","150","Greenwich Street","New York City","New York","10007","United States of America"
"641","1392","Atlantic Avenue","New York City","New York","11216","United States of America"
"642","House Number Not Found","Street Not Found","Rock Springs","Wyoming","82901","United States of America"
"643","164","Cassa Loop","Holtsville","New York","11742","United States of America"
"644","1331","Boylston Street","Boston","Massachusetts","02215","United States of America"
"645","House Number Not Found","Street Not Found","Fairfax","Virginia","22030","United States of America"
"646","2355","North Main Street","Walnut Creek","California","94596","United States of America"
"647","House Number Not Found","Street Not Found","Stony Brook","New York","11790","United States of America"
"648","House Number Not Found","West 11th Street","Little Rock","Arkansas","72202","United States of America"
"649","House Number Not Found","Street Not Found","City Not Found","Pennsylvania","18411","United States of America"
"650","House Number Not Found","Street Not Found","Norfolk","Virginia","23510","United States of America"
"651","House Number Not Found","Street Not Found","Albany","New York","12202","United States of America"
"652","House Number Not Found","Street Not Found","Batavia","Illinois","60510","United States of America"
"653","House Number Not Found","Street Not Found","Austin","Texas","78746","United States of America"
"654","House Number Not Found","Street Not Found","Houston","Texas","77003:77007","United States of America"
"655","House Number Not Found","Street Not Found","Fresno","California","93702","United States of America"
"657","House Number Not Found","Continental Street","Town of Mount Pleasant","New York","10591","United States of America"
"659","House Number Not Found","Street Not Found","Las Vegas","Nevada","89101","United States of America"
"660","House Number Not Found","Street Not Found","San Francisco","California","94103","United States of America"
"661","House Number Not Found","Street Not Found","North Kingstown","Rhode Island","02852","United States of America"
"662","House Number Not Found","Street Not Found","St. Louis","Missouri","63102-1102","United States of America"
"663","House Number Not Found","Street Not Found","San Diego","California","92101","United States of America"
"664","House Number Not Found","Street Not Found","Hauppauge","New York","11788","United States of America"
"665","House Number Not Found","Street Not Found","Eugene","Oregon","97401","United States of America"
"666","House Number Not Found","Street Not Found","Tampa","Florida","33602","United States of America"
"668","House Number Not Found","Street Not Found","Jefferson","Kansas","67340","United States of America"
"669","150","Greenwich Street","New York City","New York","10007","United States of America"
"670","House Number Not Found","Grand Avenue","Des Moines","Iowa","50309","United States of America"
"671","411","South Houston Street","Dallas","Texas","75202","United States of America"
"672","House Number Not Found","Street Not Found","St. Louis","Missouri","63102-1102","United States of America"
"673","House Number Not Found","Street Not Found","Fresno","California","93702","United States of America"
"674","House Number Not Found","Street Not Found","West Liberty","Ohio","Postcode Not Found","United States of America"
"675","House Number Not Found","Street Not Found","Chino Hills","California","91709","United States of America"
"679","151","North Franklin Street","Chicago","Illinois","60606","United States of America"
"680","House Number Not Found","West Troy Street","Dothan","Alabama","36303","United States of America"
"681","House Number Not Found","Street Not Found","Jefferson","Kansas","67340","United States of America"
"682","House Number Not Found","Street Not Found","West Liberty","Ohio","Postcode Not Found","United States of America"
"684","1635","Farrington Road","Bells","North Carolina","27523","United States of America"
"685","House Number Not Found","Street Not Found","West Liberty","Ohio","Postcode Not Found","United States of America"
"686","House Number Not Found","Street Not Found","San Diego","California","92101","United States of America"
"687","House Number Not Found","Street Not Found","Santa Monica","California","90401-2405","United States of America"
"689","272","Elm Street","New Haven","Connecticut","06511","United States of America"
"690","1","Federal Street","Boston","Massachusetts","02110-1301","United States of America"
"691","House Number Not Found","Street Not Found","Los Angeles","California","90012","United States of America"
"692","99 West","South Street","Orlando","Florida","32801","United States of America"
"693","House Number Not Found","Street Not Found","Tucson","Arizona","85701","United States of America"
"695","15361","State Route 207","Coles Corner","Washington","98826","United States of America"
"696","House Number Not Found","Street Not Found","Las Vegas","Nevada","89101","United States of America"
"697","House Number Not Found","Street Not Found","San Diego","California","92101","United States of America"
"699","House Number Not Found","Street Not Found","New Berlin","Wisconsin","53151","United States of America"
"700","201","South 4th Street","San José","California","95112","United States of America"
"701","House Number Not Found","Old Town Trail","Clovis","California","93611","United States of America"
"702","House Number Not Found","Street Not Found","Frisco","Texas","75034","United States of America"
"703","House Number Not Found","Street Not Found","Gray","Tennessee","37615","United States of America"
"704","House Number Not Found","Street Not Found","Rochester","New York","14604","United States of America"
"706","House Number Not Found","Street Not Found","Jefferson","Kansas","67340","United States of America"
"708","House Number Not Found","Street Not Found","Atlanta","Georgia","30303","United States of America"
"709","House Number Not Found","Street Not Found","Eugene","Oregon","97401","United States of America"
"710","House Number Not Found","Street Not Found","Durham","North Carolina","27701","United States of America"
"711","House Number Not Found","Street Not Found","Minneapolis","Minnesota","55401","United States of America"
"712","House Number Not Found","Arch Street","Berkeley","California","94709","United States of America"
"715","House Number Not Found","Street Not Found","Tetersburg","Indiana","46045","United States of America"
"716","House Number Not Found","Street Not Found","Tetersburg","Indiana","46045","United States of America"
"717","865","6th Avenue","New York City","New York","10001","United States of America"
"718","House Number Not Found","13th Street","Lubbock","Texas","79401","United States of America"
"719","House Number Not Found","Street Not Found","North Guilford","Maine","Postcode Not Found","United States of America"
"720","15361","State Route 207","Coles Corner","Washington","98826","United States of America"
"721","House Number Not Found","Street Not Found","Washington","District of Columbia","20420","United States of America"
"723","House Number Not Found","Street Not Found","Los Angeles","California","90012","United States of America"
"724","House Number Not Found","Street Not Found","Las Vegas","Nevada","89101","United States of America"
"725","House Number Not Found","Street Not Found","Washington","District of Columbia","20420","United States of America"
"726","125","Locust Street","Akron","Ohio","44302","United States of America"
"727","308","East Iowa Street","Urbana","Illinois","61801","United States of America"
"728","House Number Not Found","Street Not Found","Bethesda","Maryland","22814","United States of America"
"730","House Number Not Found","Street Not Found","North Kingstown","Rhode Island","02852","United States of America"
"731","House Number Not Found","Street Not Found","Red Lake","Minnesota","56610","United States of America"
"732","3741","West Chester Pike","Newtown Township","Pennsylvania","19073","United States of America"
"733","150","Greenwich Street","New York City","New York","10007","United States of America"
"735","House Number Not Found","11th Avenue Southeast","Olympia","Washington","98504","United States of America"
"736","House Number Not Found","Street Not Found","Houston","Texas","77003:77007","United States of America"
"737","House Number Not Found","Buhl Street North","Twin Falls","Idaho","83301","United States of America"
"739","House Number Not Found","Street Not Found","Jefferson","Kansas","67340","United States of America"
"740","1","Federal Street","Boston","Massachusetts","02110-1301","United States of America"
"742","House Number Not Found","Street Not Found","San Francisco","California","94103","United States of America"
"744","House Number Not Found","West Walnut Avenue","Orange","California","92868","United States of America"
"746","House Number Not Found","Street Not Found","San Diego","California","92101","United States of America"
"747","700","Monticello Avenue","Charlottesville","Virginia","22903","United States of America"
"748","House Number Not Found","14th Street","Oakland","California","94612-2202","United States of America"
"749","150","Greenwich Street","New York City","New York","10007","United States of America"
"750","House Number Not Found","Fairlawn Avenue","Carthage","Missouri","64836","United States of America"
"751","House Number Not Found","Street Not Found","Kansas City","Missouri","64106","United States of America"
"753","House Number Not Found","Street Not Found","Jefferson","Kansas","67340","United States of America"
"754","House Number Not Found","Street Not Found","City of Flint","Michigan","48532","United States of America"
"755","House Number Not Found","Street Not Found","Washington","District of Columbia","20420","United States of America"
"757","150","Greenwich Street","New York City","New York","10007","United States of America"
"762","700","5th Avenue","Seattle","Washington","98104","United States of America"
"763","House Number Not Found","Street Not Found","Hershey","Pennsylvania","17033-1712","United States of America"
"764","House Number Not Found","Street Not Found","Atlanta","Georgia","30312","United States of America"
"765","House Number Not Found","Street Not Found","McKeesport","Pennsylvania","15132","United States of America"
"766","House Number Not Found","Street Not Found","Sliders","Virginia","Postcode Not Found","United States of America"
"767","House Number Not Found","Street Not Found","Madison","Wisconsin","53715","United States of America"
"768","House Number Not Found","Street Not Found","Verona","New Jersey","07044","United States of America"
"770","House Number Not Found","Street Not Found","Roanoke","Virginia","24011","United States of America"
"771","House Number Not Found","Street Not Found","New Orleans","Louisiana","70012","United States of America"
"772","House Number Not Found","Street Not Found","Jefferson","Kansas","67340","United States of America"
"773","180","Euclid Avenue","Cleveland","Ohio","44113","United States of America"
"775","House Number Not Found","Street Not Found","Raleigh","North Carolina","27603","United States of America"
"776","House Number Not Found","Street Not Found","Atlanta","Georgia","30303","United States of America"
"777","House Number Not Found","North Sheridan Road","Waukegan","Illinois","60085","United States of America"
"778","House Number Not Found","Street Not Found","Bethesda","Maryland","22814","United States of America"
"779","House Number Not Found","West 11th Street","Little Rock","Arkansas","72202","United States of America"
"781","2001","Bloomington Avenue South","Minneapolis","Minnesota","55404","United States of America"
"785","21","Dane Street","Somerville","Massachusetts","02143","United States of America"
"787","54","Fairfield Street","Montclair","New Jersey","07042","United States of America"
"788","House Number Not Found","Street Not Found","Washington","District of Columbia","20420","United States of America"
"796","House Number Not Found","Street Not Found","Nashville-Davidson","Tennessee","37219","United States of America"
"798","House Number Not Found","Warner Bridge Road","Sims Spring","Tennessee","37160","United States of America"
"809","180","Euclid Avenue","Cleveland","Ohio","44113","United States of America"
"812","House Number Not Found","Street Not Found","Coffeyville","Kansas","67337","United States of America"
"814","House Number Not Found","Minnie Street","Crystal Lake","Illinois","60014","United States of America"
"817","3710","Richmond Road","New York City","New York","10306","United States of America"
"818","151","North Franklin Street","Chicago","Illinois","60606","United States of America"
"819","House Number Not Found","Street Not Found","Columbus","Ohio","43216","United States of America"
"820","House Number Not Found","Street Not Found","Columbus","Ohio","43216","United States of America"
"821","House Number Not Found","Street Not Found","Columbus","Ohio","43216","United States of America"
"822","House Number Not Found","Street Not Found","Jefferson","Kansas","67340","United States of America"
"826","1305","North Broadway Street","Milwaukee","Wisconsin","53202","United States of America"
"827","4301","Country Club Road","Trent Woods","North Carolina","28562","United States of America"
"828","House Number Not Found","Street Not Found","Buffalo","New York","14202","United States of America"
"830","House Number Not Found","Street Not Found","Level Corner","Pennsylvania","17744","United States of America"
"831","House Number Not Found","Street Not Found","Jefferson","Kansas","67340","United States of America"
"833","House Number Not Found","Street Not Found","Jefferson","Kansas","67340","United States of America"
"836","200","East University Drive","Mesa","Arizona","85201","United States of America"
"837","150","Greenwich Street","New York City","New York","10007","United States of America"
"838","House Number Not Found","Street Not Found","San Francisco","California","94103","United States of America"
"839","700","5th Avenue","Seattle","Washington","98104","United States of America"
"840","House Number Not Found","Street Not Found","Columbus","Ohio","43216","United States of America"
"841","272","Elm Street","New Haven","Connecticut","06511","United States of America"
"843","House Number Not Found","Street Not Found","Wilmington","North Carolina","28403","United States of America"
"845","House Number Not Found","Street Not Found","Columbus","Ohio","43216","United States of America"
"846","9246","Beauregard Avenue","Manassas","Virginia","20110","United States of America"
"847","2922","2nd Road North","Arlington","Virginia","22201","United States of America"
"848","House Number Not Found","Street Not Found","Nashville-Davidson","Tennessee","37219","United States of America"
"849","House Number Not Found","Street Not Found","Lawrenceville","Georgia","30045","United States of America"
"851","House Number Not Found","Street Not Found","Birmingham","Alabama","35203","United States of America"
"852","House Number Not Found","Street Not Found","San Francisco","California","94103","United States of America"
"853","House Number Not Found","Street Not Found","Morristown","Vermont","05661","United States of America"
"854","House Number Not Found","Street Not Found","Level Corner","Pennsylvania","17744","United States of America"
"856","House Number Not Found","Street Not Found","Atlanta","Georgia","30303","United States of America"
"858","18567","Acker Street","Magnolia","Texas","77354","United States of America"
"859","House Number Not Found","Street Not Found","Loma Linda","California","92350","United States of America"
"861","House Number Not Found","Street Not Found","Washington","District of Columbia","20420","United States of America"
"862","709","2nd Street North","Fargo","North Dakota","58102-4608","United States of America"
"864","1304","Elati Street","Denver","Colorado","80204","United States of America"
"866","181","West King Street","Strasburg","Virginia","22657","United States of America"
"867","House Number Not Found","Street Not Found","Las Vegas","Nevada","89101","United States of America"
"869","House Number Not Found","Street Not Found","Houston","Texas","77003:77007","United States of America"
"870","House Number Not Found","Street Not Found","Nashville-Davidson","Tennessee","37219","United States of America"
"871","House Number Not Found","Street Not Found","Tulsa","Oklahoma","74106","United States of America"
"872","House Number Not Found","Street Not Found","Syracuse","New York","13202","United States of America"
"873","House Number Not Found","Street Not Found","Cranbury Township","New Jersey","08512","United States of America"
"874","65","Lawrenceville Street Northwest","Norcross","Georgia","30071","United States of America"
"875","House Number Not Found","Street Not Found","Pensacola","Florida","32501","United States of America"
"876","House Number Not Found","Street Not Found","Willow Springs","Missouri","65793","United States of America"
"879","601","Adams Street","Toledo","Ohio","43624","United States of America"
"881","House Number Not Found","Street Not Found","Round Rock","Texas","78664","United States of America"
"883","House Number Not Found","Street Not Found","Philadelphia","Pennsylvania","19102","United States of America"
"884","House Number Not Found","Street Not Found","San Francisco","California","94103","United States of America"
"885","House Number Not Found","Street Not Found","City Not Found","Kansas","67227","United States of America"
"886","150","Greenwich Street","New York City","New York","10007","United States of America"
"887","House Number Not Found","Street Not Found","Jefferson","Kansas","67340","United States of America"
"888","House Number Not Found","Street Not Found","Bristol","Pennsylvania","19007","United States of America"
"889","55","Webster Avenue","New Rochelle","New York","10801","United States of America"
"890","House Number Not Found","Street Not Found","Grand Rapids","Michigan","49503","United States of America"
"892","420","South Howes Street","Fort Collins","Colorado","80521-2871","United States of America"
"894","House Number Not Found","Street Not Found","Columbus","Ohio","43216","United States of America"
"895","House Number Not Found","Street Not Found","Sharpes Hill","South Carolina","29053","United States of America"
"896","House Number Not Found","Street Not Found","Harrisburg","Pennsylvania","17120","United States of America"
"897","House Number Not Found","Street Not Found","Poe","Ohio","44273","United States of America"
"899","1","Federal Street","Boston","Massachusetts","02110-1301","United States of America"
"904","House Number Not Found","Street Not Found","Harrisburg","Pennsylvania","17120","United States of America"
"905","House Number Not Found","Port Arthur Avenue","Mena","Arkansas","71953","United States of America"
"909","House Number Not Found","Street Not Found","Canton","Michigan","48188","United States of America"
"910","House Number Not Found","Street Not Found","Jefferson","Kansas","67340","United States of America"
"914","House Number Not Found","Street Not Found","Baton Rouge","Louisiana","70802","United States of America"
"915","House Number Not Found","Street Not Found","San Diego","California","92101","United States of America"
"916","House Number Not Found","Street Not Found","Beverly Hills","California","90212","United States of America"
"917","151","North Franklin Street","Chicago","Illinois","60606","United States of America"
"918","House Number Not Found","Street Not Found","Pittsburgh","Pennsylvania","15219","United States of America"
"923","5011","Finley Drive","Austin","Texas","78731","United States of America"
"924","House Number Not Found","Street Not Found","Inglewood","California","90304","United States of America"
"928","House Number Not Found","Street Not Found","Washington","District of Columbia","20420","United States of America"
"929","House Number Not Found","Street Not Found","Atlanta","Georgia","30303","United States of America"
"933","House Number Not Found","Street Not Found","Houston","Texas","77003:77007","United States of America"
"935","House Number Not Found","Street Not Found","Atlanta","Georgia","30303","United States of America"
"936","House Number Not Found","Street Not Found","Jefferson","Kansas","67340","United States of America"
"938","House Number Not Found","Street Not Found","Jersey Village","Texas","77040","United States of America"
"939","531","East Jackson Boulevard","Jonesborough","Tennessee","37659","United States of America"
"940","House Number Not Found","Street Not Found","Jefferson","Kansas","67340","United States of America"
"941","House Number Not Found","Street Not Found","St. Louis","Missouri","63102-1102","United States of America"
"943","273","Columbus Avenue","New York City","New York","10023","United States of America"
"944","House Number Not Found","Street Not Found","Sportsmen Acres Community","Oklahoma","Postcode Not Found","United States of America"
"945","House Number Not Found","Halcyon Place","Concord","New Hampshire","03302","United States of America"
"946","House Number Not Found","Street Not Found","Fresno","California","93702","United States of America"
"947","House Number Not Found","Street Not Found","Hillsboro","Oregon","97124","United States of America"
"948","2530","Charlotte Street","Kansas City","Missouri","64108","United States of America"
"949","House Number Not Found","Street Not Found","Baton Rouge","Louisiana","70802","United States of America"
"953","House Number Not Found","Street Not Found","San Francisco","California","94103","United States of America"
"954","House Number Not Found","Street Not Found","Columbus","Ohio","43216","United States of America"
"955","House Number Not Found","Street Not Found","San Diego","California","92101","United States of America"
"956","House Number Not Found","Street Not Found","Washington","District of Columbia","20420","United States of America"
"957","House Number Not Found","Street Not Found","Lansing","Michigan","48912","United States of America"
"959","House Number Not Found","Street Not Found","Jefferson","Kansas","67340","United States of America"
"960","151","North Franklin Street","Chicago","Illinois","60606","United States of America"
"961","610","West College Street","Springfield","Missouri","65806","United States of America"
"964","150","Greenwich Street","New York City","New York","10007","United States of America"
"965","House Number Not Found","North Grandin Avenue","Rockville","Maryland","20850","United States of America"
"966","House Number Not Found","Street Not Found","Vancouver","Washington","98682","United States of America"
"967","House Number Not Found","Street Not Found","Portland","Oregon","97258","United States of America"
"968","House Number Not Found","Street Not Found","Dublin","Ohio","43017","United States of America"
"972","1304","Elati Street","Denver","Colorado","80204","United States of America"
"973","House Number Not Found","Street Not Found","Sudbury","Massachusetts","01733","United States of America"
"976","309","East 11th Street","Austin","Texas","78701","United States of America"
"977","House Number Not Found","South Lexington Avenue","White Plains","New York","10606","United States of America"
"978","House Number Not Found","Street Not Found","San Diego","California","92101","United States of America"
"979","House Number Not Found","Street Not Found","Tetersburg","Indiana","46045","United States of America"
"980","272","Elm Street","New Haven","Connecticut","06511","United States of America"
"981","House Number Not Found","Street Not Found","Houston","Texas","77003:77007","United States of America"
"982","House Number Not Found","Street Not Found","Philadelphia","Pennsylvania","19102","United States of America"
"983","2922","2nd Road North","Arlington","Virginia","22201","United States of America"
"984","House Number Not Found","Crown Point Road","Thorofare","New Jersey","08086","United States of America"
"986","150","Greenwich Street","New York City","New York","10007","United States of America"
"987","House Number Not Found","North Grandin Avenue","Rockville","Maryland","20850","United States of America"
"988","House Number Not Found","Street Not Found","Jefferson","Kansas","67340","United States of America"
"989","House Number Not Found","Street Not Found","Washington","District of Columbia","20420","United States of America"
"990","House Number Not Found","Harris Street","Newberry","South Carolina","29108","United States of America"
"991","House Number Not Found","Street Not Found","Jefferson","Kansas","67340","United States of America"
"992","House Number Not Found","Street Not Found","Washington","District of Columbia","20420","United States of America"
"993","House Number Not Found","Street Not Found","Baton Rouge","Louisiana","70802","United States of America"
"995","1","Federal Street","Boston","Massachusetts","02110-1301","United States of America"
"996","House Number Not Found","Street Not Found","Level Corner","Pennsylvania","17744","United States of America"
"997","7","Dauphin Street","Mobile","Alabama","36602","United States of America"
"999","House Number Not Found","Street Not Found","Durham","North Carolina","27701","United States of America"
"1002","House Number Not Found","Street Not Found","Rochester","Minnesota","Postcode Not Found","United States of America"
"1003","House Number Not Found","Street Not Found","Washington","District of Columbia","20420","United States of America"
"1004","House Number Not Found","Resource Center Parkway","Birmingham","Alabama","35242","United States of America"
"1005","House Number Not Found","Street Not Found","Tampa","Florida","33602","United States of America"
"1006","150","Greenwich Street","New York City","New York","10007","United States of America"
"1010","55","Webster Avenue","New Rochelle","New York","10801","United States of America"
"1011","House Number Not Found","Street Not Found","Fair Oaks","California","95628","United States of America"
"1013","1","Federal Street","Boston","Massachusetts","02110-1301","United States of America"
"1015","22","East Leigh Street","Richmond City","Virginia","23219","United States of America"
"1016","House Number Not Found","Fairlawn Avenue","Carthage","Missouri","64836","United States of America"
"1017","151","North Franklin Street","Chicago","Illinois","60606","United States of America"
"1020","House Number Not Found","Street Not Found","Deerfield","Illinois","60015","United States of America"
"1021","House Number Not Found","Street Not Found","Baltimore","Maryland","21202","United States of America"
"1023","House Number Not Found","Market Street","Memphis","Tennessee","38103","United States of America"
"1024","House Number Not Found","Street Not Found","Nashville-Davidson","Tennessee","37219","United States of America"
"1025","House Number Not Found","Street Not Found","York","Pennsylvania","17401","United States of America"
"1026","House Number Not Found","Street Not Found","Tampa","Florida","33607","United States of America"
"1027","House Number Not Found","Street Not Found","Cathedral City","California","CA 92234","United States of America"
"1028","House Number Not Found","Street Not Found","Cedar Park","Texas","78613","United States of America"
"1029","House Number Not Found","Street Not Found","McKinney","Texas","75070","United States of America"
"1030","House Number Not Found","Warner Bridge Road","Sims Spring","Tennessee","37160","United States of America"
"1035","House Number Not Found","Street Not Found","Jefferson","Kansas","67340","United States of America"
"1037","House Number Not Found","Street Not Found","Plainfield","New Hampshire","03781","United States of America"
"1039","House Number Not Found","Street Not Found","St. Louis","Missouri","63102-1102","United States of America"
"1040","House Number Not Found","Street Not Found","Sportsmen Acres Community","Oklahoma","Postcode Not Found","United States of America"
"1043","10810","Preston Vineyard Drive","Frisco","Texas","75035","United States of America"
"1044","House Number Not Found","East Thousand Oaks Boulevard","Thousand Oaks","California","CA 91362","United States of America"
"1047","House Number Not Found","Street Not Found","Jefferson","Kansas","67340","United States of America"
"1048","House Number Not Found","Street Not Found","Knoxville","Tennessee","37916","United States of America"
"1049","House Number Not Found","Street Not Found","Jefferson","Kansas","67340","United States of America"
"1051","House Number Not Found","Street Not Found","Jefferson","Kansas","67340","United States of America"
"1054","150","Greenwich Street","New York City","New York","10007","United States of America"
"1055","House Number Not Found","Street Not Found","Fosston","Minnesota","56542","United States of America"
"1056","House Number Not Found","Street Not Found","Stewart","Tennessee","37175","United States of America"
"1058","House Number Not Found","Street Not Found","Jefferson","Kansas","67340","United States of America"
"1064","House Number Not Found","Copper Hill Drive","Rancho Santa Clarita","California","91354","United States of America"
"1067","House Number Not Found","Street Not Found","Green Settlement","Colorado","Postcode Not Found","United States of America"
"1069","2","Ledgeway East","West Lake Hills","Texas","78746","United States of America"
"1070","House Number Not Found","Street Not Found","Sliders","Virginia","Postcode Not Found","United States of America"
"1074","House Number Not Found","Street Not Found","Carmel","Indiana","46032","United States of America"
"1079","House Number Not Found","Street Not Found","Level Corner","Pennsylvania","17744","United States of America"
"1081","House Number Not Found","East Tenth Street","Tempe","Arizona","85287","United States of America"
"1083","House Number Not Found","Street Not Found","Reno","Nevada","89505","United States of America"
"1089","House Number Not Found","Bray Avenue","Santa Clara","California","95050-3653","United States of America"
"1090","1635","Farrington Road","Bells","North Carolina","27523","United States of America"
"1091","House Number Not Found","Street Not Found","Sheboygan","Wisconsin","53081","United States of America"
"1092","House Number Not Found","Street Not Found","Albany","New York","12202","United States of America"
"1097","House Number Not Found","Street Not Found","Los Alamitos","California","90720","United States of America"
"1100","House Number Not Found","Street Not Found","Fresno","California","93702","United States of America"
"1102","House Number Not Found","Street Not Found","Baltimore","Maryland","21202","United States of America"
"1104","House Number Not Found","Street Not Found","Baltimore","Maryland","21202","United States of America"
"1106","House Number Not Found","Street Not Found","San Diego","California","92101","United States of America"
"1107","House Number Not Found","Street Not Found","Atlanta","Georgia","30303","United States of America"
"1114","2304","South Lamar Boulevard","Austin","Texas","78704","United States of America"
"1115","House Number Not Found","Street Not Found","Los Angeles","California","90025","United States of America"
"1119","117","South Ashley Street","Ann Arbor","Michigan","48104","United States of America"
"1120","House Number Not Found","Street Not Found","Logansport","Iowa","50036","United States of America"
"1122","House Number Not Found","Street Not Found","City Not Found","Utah","Postcode Not Found","United States of America"
"1125","House Number Not Found","Street Not Found","Nashville-Davidson","Tennessee","37219","United States of America"
"1126","House Number Not Found","Street Not Found","Salt Lake City","Utah","84139","United States of America"
"1128","House Number Not Found","Street Not Found","Jefferson","Kansas","67340","United States of America"
"1130","House Number Not Found","Street Not Found","Indian Pass","Florida","Postcode Not Found","United States of America"
"1131","House Number Not Found","Fox River Trail","East Dundee","Illinois","60118","United States of America"
"1132","House Number Not Found","Street Not Found","Washington","District of Columbia","20420","United States of America"
"1136","House Number Not Found","Pelham Road North","Jacksonville","Alabama","36265","United States of America"
"1137","2530","Charlotte Street","Kansas City","Missouri","64108","United States of America"
"1140","House Number Not Found","Street Not Found","Washington","District of Columbia","20420","United States of America"
"1143","House Number Not Found","Street Not Found","Winona","Minnesota","55987","United States of America"
"1145","House Number Not Found","Street Not Found","Dallas","Texas","75224","United States of America"
"1152","151","North Franklin Street","Chicago","Illinois","60606","United States of America"
"1154","House Number Not Found","Williston Road","South Burlington","Vermont","05401","United States of America"
"1155","House Number Not Found","Street Not Found","Kansas City","Missouri","64106","United States of America"
"1156","House Number Not Found","Street Not Found","Sportsmen Acres Community","Oklahoma","Postcode Not Found","United States of America"
"1157","House Number Not Found","Street Not Found","Milwaukie","Oregon","97222","United States of America"
"1160","150","Greenwich Street","New York City","New York","10007","United States of America"
"1161","House Number Not Found","Research Park Boulevard","Huntsville","Alabama","35814","United States of America"
"1165","602","South Meridian","Puyallup","Washington","98371","United States of America"
"1169","House Number Not Found","Street Not Found","St. Joseph","Missouri","64501","United States of America"
"1171","House Number Not Found","Street Not Found","North Kingstown","Rhode Island","02852","United States of America"
"1174","House Number Not Found","Street Not Found","Lawrence","Kansas","66044","United States of America"
"1175","House Number Not Found","12th Street","Oakland","California","94607","United States of America"
"1182","House Number Not Found","Street Not Found","Honolulu","Hawaii","96850","United States of America"
"1183","House Number Not Found","Street Not Found","Atlanta","Georgia","30312","United States of America"
"1184","House Number Not Found","Street Not Found","North Guilford","Maine","Postcode Not Found","United States of America"
"1188","House Number Not Found","Street Not Found","Pittsburgh","Pennsylvania","15219","United States of America"
"1193","700","5th Avenue","Seattle","Washington","98104","United States of America"
"1196","House Number Not Found","Street Not Found","Worcester","Massachusetts","MA01604","United States of America"
"1199","150","Greenwich Street","New York City","New York","10007","United States of America"
"1201","150","Greenwich Street","New York City","New York","10007","United States of America"
"1203","House Number Not Found","Street Not Found","Jefferson","Kansas","67340","United States of America"
"1204","House Number Not Found","Street Not Found","Sudbury","Massachusetts","01733","United States of America"
"1209","House Number Not Found","Street Not Found","Carbondale","Illinois","62901","United States of America"
"1212","House Number Not Found","Market Street","Memphis","Tennessee","38103","United States of America"
"1221","House Number Not Found","Street Not Found","Jefferson","Kansas","67340","United States of America"
"1222","House Number Not Found","Queens Boulevard","New York City","New York","11375","United States of America"
"1225","House Number Not Found","Street Not Found","El Paso","Texas","79901","United States of America"
"1226","1140","South 107th East Avenue","Tulsa","Oklahoma","74128","United States of America"
"1227","House Number Not Found","Street Not Found","San Francisco","California","94103","United States of America"
"1230","House Number Not Found","Main Street","Norwalk","Connecticut","06581","United States of America"
"1231","House Number Not Found","Stratford Avenue","Bridgeport","Connecticut","06607","United States of America"
"1232","House Number Not Found","Station Road","Wilton","Connecticut","06897","United States of America"
"1233","151","North Franklin Street","Chicago","Illinois","60606","United States of America"
"1235","House Number Not Found","Street Not Found","Houston","Texas","77003:77007","United States of America"
"1237","2922","2nd Road North","Arlington","Virginia","22201","United States of America"
"1239","House Number Not Found","Street Not Found","Philadelphia","Pennsylvania","19102","United States of America"
"1246","223","Kirkland Avenue","Kirkland","Washington","98033","United States of America"
"1250","House Number Not Found","Street Not Found","Winchester","Tennessee","37398","United States of America"
"1251","House Number Not Found","Street Not Found","San Francisco","California","94103","United States of America"
"1252","151","North Franklin Street","Chicago","Illinois","60606","United States of America"
"1253","300","East 35th Street","Austin","Texas","78705","United States of America"
"1254","House Number Not Found","Street Not Found","Los Angeles","California","90012","United States of America"
"1255","House Number Not Found","Street Not Found","Nashville-Davidson","Tennessee","37219","United States of America"
"1258","68","Northfield Street","Montpelier","Vermont","05602","United States of America"
"1259","House Number Not Found","Street Not Found","Nashville-Davidson","Tennessee","37219","United States of America"
"1261","150","Greenwich Street","New York City","New York","10007","United States of America"
"1265","House Number Not Found","Street Not Found","Nashville-Davidson","Tennessee","37219","United States of America"
"1267","House Number Not Found","Street Not Found","Jefferson","Kansas","67340","United States of America"
"1268","House Number Not Found","Street Not Found","Holden","Massachusetts","01520","United States of America"
"1274","House Number Not Found","Street Not Found","Baltimore","Maryland","21202","United States of America"
"1276","House Number Not Found","Market Street","Chattanooga","Tennessee","37408","United States of America"
"1283","2530","Charlotte Street","Kansas City","Missouri","64108","United States of America"
"1285","House Number Not Found","Street Not Found","Wichita","Kansas","67208","United States of America"
"1289","House Number Not Found","Street Not Found","Tanager Forest","Maryland","21108","United States of America"
"1293","2530","Charlotte Street","Kansas City","Missouri","64108","United States of America"
"1294","2530","Charlotte Street","Kansas City","Missouri","64108","United States of America"
"1295","House Number Not Found","Street Not Found","South Jordan","Utah","84088","United States of America"
"1297","150","Greenwich Street","New York City","New York","10007","United States of America"
"1302","House Number Not Found","Street Not Found","Clearwater","Florida","33756","United States of America"
"1303","House Number Not Found","Street Not Found","Durham","North Carolina","27701","United States of America"
"1311","House Number Not Found","Street Not Found","Jefferson","Kansas","67340","United States of America"
"1312","House Number Not Found","Street Not Found","Silver Spring","Maryland","20911","United States of America"
"1315","House Number Not Found","Street Not Found","Philadelphia","Pennsylvania","19102","United States of America"
"1316","411","South Houston Street","Dallas","Texas","75202","United States of America"
"1321","1305","North Broadway Street","Milwaukee","Wisconsin","53202","United States of America"
"1324","House Number Not Found","Street Not Found","Buffalo","New York","14202","United States of America"
"1326","House Number Not Found","Street Not Found","Rochester","Minnesota","Postcode Not Found","United States of America"
"1327","House Number Not Found","Street Not Found","Bethesda","Maryland","22814","United States of America"
"1334","1305","North Broadway Street","Milwaukee","Wisconsin","53202","United States of America"
"1337","House Number Not Found","Street Not Found","Oakville","Connecticut","06795","United States of America"
"1339","1309","Illsley Drive","Fort Wayne","Indiana","46807","United States of America"
"1341","House Number Not Found","Street Not Found","Miami","Florida","33131","United States of America"
"1342","House Number Not Found","Street Not Found","Cabo Rojo","Puerto Rico","00623-0910","United States of America"
"1343","164","Lindau Lane","Bloomington","Minnesota","55425","United States of America"
"1359","House Number Not Found","Street Not Found","Madison","Wisconsin","53715","United States of America"
"1362","307","Central Avenue","Lawrence","New York","11598","United States of America"
"1364","2530","Charlotte Street","Kansas City","Missouri","64108","United States of America"
"1367","House Number Not Found","Market Street","Chattanooga","Tennessee","37408","United States of America"
"1373","House Number Not Found","Street Not Found","Kalkaska","Michigan","Postcode Not Found","United States of America"
"1374","21","Dane Street","Somerville","Massachusetts","02143","United States of America"
"1376","House Number Not Found","Street Not Found","Tulsa","Oklahoma","70136","United States of America"
"1382","180","Euclid Avenue","Cleveland","Ohio","44113","United States of America"
"1383","House Number Not Found","Street Not Found","Wentzville","Missouri","6334","United States of America"
"1385","House Number Not Found","Street Not Found","Pittsburgh","Pennsylvania","15219","United States of America"
"1386","House Number Not Found","Street Not Found","Clifton Park Center","New York","12065","United States of America"
"1387","House Number Not Found","Street Not Found","City Not Found","Georgia","30067","United States of America"
"1393","House Number Not Found","Beaver Meadow Road","Norwich","Vermont","05055","United States of America"
"1395","House Number Not Found","Street Not Found","Jefferson","Kansas","67340","United States of America"
"1400","649","2nd Avenue","New York City","New York","10035","United States of America"
"1405","602","South Meridian","Puyallup","Washington","98371","United States of America"
"1412","House Number Not Found","Street Not Found","Atlanta","Georgia","30303","United States of America"
"1418","House Number Not Found","C Street Northwest","Washington","District of Columbia","20037","United States of America"
"1422","House Number Not Found","Street Not Found","Tulsa","Oklahoma","70136","United States of America"
"1425","House Number Not Found","Halcyon Place","Concord","New Hampshire","03302","United States of America"
"1432","House Number Not Found","Street Not Found","Tulsa","Oklahoma","70136","United States of America"
"1435","House Number Not Found","Street Not Found","Kansas City","Missouri","64106","United States of America"
"1448","300","East 35th Street","Austin","Texas","78705","United States of America"
"1450","House Number Not Found","Street Not Found","Springfield","Massachusetts","01101","United States of America"
"1452","1491","3rd Avenue","New York City","New York","10028","United States of America"
"1453","2530","Charlotte Street","Kansas City","Missouri","64108","United States of America"
"1467","809","Piper Avenue","Sunnyvale","California","94807","United States of America"
"1468","House Number Not Found","South Nimitz Parkway","Fredericksburg","Texas","78624","United States of America"
"1473","House Number Not Found","Street Not Found","Las Vegas","Nevada","89101","United States of America"
"1474","8301","Lemont Road","Darien","Illinois","60561","United States of America"
"1475","House Number Not Found","Street Not Found","Plumsted Township","New Jersey","08533","United States of America"
"1476","303 C","East Nicholson Street","Williamsburg","Virginia","23185","United States of America"
"1477","House Number Not Found","Street Not Found","Houston","Texas","77003:77007","United States of America"
"1478","House Number Not Found","Street Not Found","Edmond","Oklahoma","73034","United States of America"
"1479","House Number Not Found","3rd Street","Detroit","Michigan","48226","United States of America"
"1480","151","North Franklin Street","Chicago","Illinois","60606","United States of America"
"1482","House Number Not Found","Street Not Found","Oakland","California","94606-3636","United States of America"
"1483","House Number Not Found","Street Not Found","Washington","District of Columbia","20002","United States of America"
"1484","150","Greenwich Street","New York City","New York","10007","United States of America"
"1485","House Number Not Found","Street Not Found","Irvine","California","92614","United States of America"
"1487","House Number Not Found","Street Not Found","Jefferson","Kansas","67340","United States of America"
"1488","House Number Not Found","Street Not Found","Kansas City","Missouri","64106","United States of America"
"1491","House Number Not Found","Street Not Found","Los Angeles","California","90012","United States of America"
"1492","309","East 11th Street","Austin","Texas","78701","United States of America"
"1494","House Number Not Found","Street Not Found","Flowerfield","Illinois","60137","United States of America"
"1495","House Number Not Found","Street Not Found","Jefferson","Kansas","67340","United States of America"
"1496","House Number Not Found","Street Not Found","Jefferson","Kansas","67340","United States of America"
"1497","House Number Not Found","County Road","Chatham","Illinois","62629","United States of America"
"1498","133","South 3rd Street","Louisville","Kentucky","40202","United States of America"
"1499","House Number Not Found","Street Not Found","New Orleans","Louisiana","LA 70116","United States of America"
"1500","99 West","South Street","Orlando","Florida","32801","United States of America"
"1502","House Number Not Found","Street Not Found","Houston","Texas","77003:77007","United States of America"
"1503","House Number Not Found","Street Not Found","Villages of Oriole","Florida","33446","United States of America"
"1505","House Number Not Found","Street Not Found","Massillon","Ohio","44646","United States of America"
"1506","House Number Not Found","Street Not Found","Independence","Kansas","67301","United States of America"
"1509","House Number Not Found","Street Not Found","Tulsa","Oklahoma","74114","United States of America"
"1511","House Number Not Found","Street Not Found","City Not Found","Louisiana","71362","United States of America"
"1512","House Number Not Found","Street Not Found","City Not Found","Missouri","Postcode Not Found","United States of America"
"1513","House Number Not Found","Street Not Found","City Not Found","New Mexico","87532","United States of America"
"1514","House Number Not Found","Street Not Found","Atlanta","Georgia","30303","United States of America"
"1515","House Number Not Found","Street Not Found","Tyler","Alabama","36785","United States of America"
"1520","House Number Not Found","Street Not Found","Jefferson","Kansas","67340","United States of America"
"1522","2712","Theodore Roosevelt Highway","Bolton","Vermont","05466","United States of America"
"1523","House Number Not Found","Street Not Found","Los Angeles","California","90012","United States of America"
"1524","House Number Not Found","Street Not Found","Bartlesville","Oklahoma","74006","United States of America"
"1525","House Number Not Found","Street Not Found","Vallejo","California","94590","United States of America"
"1527","House Number Not Found","Street Not Found","West Palm Beach","Florida","33409","United States of America"
"1529","House Number Not Found","Street Not Found","Houston","Texas","77003:77007","United States of America"
"1532","700","5th Avenue","Seattle","Washington","98104","United States of America"
"1534","House Number Not Found","Street Not Found","Stillwater","Oklahoma","74078","United States of America"
"1535","House Number Not Found","Central Avenue","Great Falls","Montana","59403","United States of America"
"1536","House Number Not Found","River Walk","San Antonio","Texas","78205","United States of America"
"1537","1821","13th Avenue","Seattle","Washington","98122","United States of America"
"1539","House Number Not Found","Street Not Found","Portage","Indiana","46368","United States of America"
"1541","House Number Not Found","Street Not Found","Salmon","Idaho","83467","United States of America"
"1543","House Number Not Found","Street Not Found","Baltimore","Maryland","21202","United States of America"
"1544","House Number Not Found","Street Not Found","Wichita","Kansas","67219","United States of America"
"1545","House Number Not Found","Street Not Found","Oakville","Connecticut","06795","United States of America"
"1551","House Number Not Found","Street Not Found","West Liberty","Ohio","Postcode Not Found","United States of America"
"1552","House Number Not Found","Street Not Found","Los Angeles","California","90012","United States of America"
"1554","House Number Not Found","Street Not Found","Salem","Oregon","97301","United States of America"
"1556","3710","Richmond Road","New York City","New York","10306","United States of America"
"1557","House Number Not Found","Bridge Street","Salem","Massachusetts","MA 01970","United States of America"
"1560","House Number Not Found","Street Not Found","Muskogee","Oklahoma","74401","United States of America"
"1562","House Number Not Found","Street Not Found","Fort Worth","Texas","76102","United States of America"
"1563","House Number Not Found","Street Not Found","Putnam Township","Michigan","48169","United States of America"
"1565","House Number Not Found","Street Not Found","Wasilla","Alaska","99687","United States of America"
"1570","House Number Not Found","Street Not Found","North Guilford","Maine","Postcode Not Found","United States of America"
"1571","House Number Not Found","Street Not Found","Los Angeles","California","90012","United States of America"
"1574","House Number Not Found","Street Not Found","Kansas City","Missouri","64106","United States of America"
"1575","House Number Not Found","East Pierce Street","Luling","Texas","78468","United States of America"
"1576","House Number Not Found","Street Not Found","Las Vegas","Nevada","89101","United States of America"
"1577","House Number Not Found","Street Not Found","Atlanta","Georgia","30303","United States of America"
"1578","23839","John R Road","Hazel Park","Michigan","48071","United States of America"
"1581","House Number Not Found","Street Not Found","Erie","Pennsylvania","16501","United States of America"
"1582","House Number Not Found","Laurel Road","Ettrick","Virginia","23803","United States of America"
"1585","House Number Not Found","Street Not Found","Temple","Texas","76504","United States of America"
"1587","411","South Houston Street","Dallas","Texas","75202","United States of America"
"1588","House Number Not Found","Street Not Found","Torrance","California","90505","United States of America"
"1589","House Number Not Found","Street Not Found","Minneapolis","Minnesota","55401","United States of America"
"1591","House Number Not Found","Street Not Found","Los Angeles","California","90012","United States of America"
"1593","15361","State Route 207","Coles Corner","Washington","98826","United States of America"
"1595","1304","Elati Street","Denver","Colorado","80204","United States of America"
"1596","350","Canal Walk","Indianapolis","Indiana","46202","United States of America"
"1597","House Number Not Found","Street Not Found","Princess Anne","Maryland","21853","United States of America"
"1598","House Number Not Found","Street Not Found","City Not Found","Michigan","49455","United States of America"
"1599","House Number Not Found","Street Not Found","City Not Found","Oregon","Postcode Not Found","United States of America"
"1601","House Number Not Found","Street Not Found","Roma","Texas","78584","United States of America"
"1602","House Number Not Found","Street Not Found","San Diego","California","92109","United States of America"
"1603","House Number Not Found","Morris Park Avenue","New York City","New York","10461","United States of America"
"1604","House Number Not Found","Street Not Found","City Not Found","Missouri","65401","United States of America"
"1605","House Number Not Found","Street Not Found","Plumsted Township","New Jersey","08533","United States of America"
"1609","House Number Not Found","Street Not Found","Plumsted Township","New Jersey","08533","United States of America"
"1611","House Number Not Found","Street Not Found","Atlanta","Georgia","30303","United States of America"
"1612","411","South Houston Street","Dallas","Texas","75202","United States of America"
"1613","House Number Not Found","Street Not Found","Nashville-Davidson","Tennessee","37219","United States of America"
"1614","House Number Not Found","Street Not Found","Honolulu","Hawaii","96850","United States of America"
"1615","House Number Not Found","Street Not Found","Menomonie","Wisconsin","54751","United States of America"
"1617","House Number Not Found","Street Not Found","Lake Charles","Louisiana","70601","United States of America"
"1619","House Number Not Found","Street Not Found","Joshua Tree","California","92252","United States of America"
"1620","309","East 11th Street","Austin","Texas","78701","United States of America"
"1621","House Number Not Found","Monroe Avenue","Memphis","Tennessee","38163","United States of America"
"1623","947","East 56th Street","New York City","New York","11234","United States of America"
"1624","House Number Not Found","Street Not Found","City Not Found","California","95843","United States of America"
"1625","House Number Not Found","Street Not Found","Compton","California","90221","United States of America"
"1627","House Number Not Found","Street Not Found","Jefferson","Kansas","67340","United States of America"
"1632","House Number Not Found","Ohlone Way","Emeryville","California","94608","United States of America"
"1634","House Number Not Found","Street Not Found","Henderson","Nevada","NV 89074","United States of America"
"1635","House Number Not Found","Street Not Found","Washington","District of Columbia","20420","United States of America"
"1636","House Number Not Found","Street Not Found","Fresno","California","93702","United States of America"
"1638","House Number Not Found","Street Not Found","De Siard","Louisiana","71280","United States of America"
"1639","House Number Not Found","Street Not Found","Hayward","California","94541","United States of America"
"1640","House Number Not Found","Twigg Street","Corpus Christi","Texas","78401","United States of America"
"1641","House Number Not Found","Street Not Found","Philadelphia","Pennsylvania","19102","United States of America"
"1642","House Number Not Found","Street Not Found","Jefferson","Kansas","67340","United States of America"
"1643","House Number Not Found","Street Not Found","Syracuse","New York","13202","United States of America"
"1644","House Number Not Found","Street Not Found","Miami","Florida","33131","United States of America"
"1645","House Number Not Found","Street Not Found","Sliders","Virginia","Postcode Not Found","United States of America"
"1646","269","Old Topanga Canyon Road","Topanga","California","90290","United States of America"
"1648","House Number Not Found","Street Not Found","Abington Township","Pennsylvania","19001","United States of America"
"1650","House Number Not Found","Hope Drive","Plainview","New York","11803","United States of America"
"1651","House Number Not Found","Street Not Found","Dublin","Ohio","43017","United States of America"
"1652","House Number Not Found","Street Not Found","Sulphur Springs","Texas","75482","United States of America"
"1653","House Number Not Found","Street Not Found","Kennesaw","Georgia","30144","United States of America"
"1654","House Number Not Found","Street Not Found","Phoenix","Arizona","85017","United States of America"
"1656","House Number Not Found","Bedford Avenue","New York City","New York","11226","United States of America"
"1657","House Number Not Found","Street Not Found","Fresno","California","93702","United States of America"
"1658","350","Canal Walk","Indianapolis","Indiana","46202","United States of America"
"1661","151","North Franklin Street","Chicago","Illinois","60606","United States of America"
"1663","65","Lawrenceville Street Northwest","Norcross","Georgia","30071","United States of America"
"1667","House Number Not Found","Putnam Road","Pomfret","Connecticut","06258","United States of America"
"1668","House Number Not Found","Street Not Found","Eugene","Oregon","97401","United States of America"
"1670","House Number Not Found","Street Not Found","Morristown","Vermont","05661","United States of America"
"1675","House Number Not Found","Cherry Street","Philadelphia","Pennsylvania","19103","United States of America"
"1676","House Number Not Found","Street Not Found","Nashville-Davidson","Tennessee","37219","United States of America"
"1677","House Number Not Found","Street Not Found","Jefferson","Kansas","67340","United States of America"
"1678","House Number Not Found","Street Not Found","Sharpes Hill","South Carolina","29053","United States of America"
"1679","House Number Not Found","Street Not Found","West Liberty","Ohio","Postcode Not Found","United States of America"
"1682","House Number Not Found","Warner Bridge Road","Sims Spring","Tennessee","37160","United States of America"
"1685","1","Federal Street","Boston","Massachusetts","02110-1301","United States of America"
"1690","House Number Not Found","Morris Park Avenue","New York City","New York","10461","United States of America"
"1692","House Number Not Found","Street Not Found","Jefferson","Kansas","67340","United States of America"
"1693","388","Fulton Street","San Francisco","California","94102","United States of America"
"1695","101","East Market Street","Johnson City","Tennessee","37601","United States of America"
"1699","House Number Not Found","Street Not Found","Finleyville","Pennsylvania","15332","United States of America"
"1700","House Number Not Found","Street Not Found","Portland","Oregon","97258","United States of America"
"1703","407-479","Street Not Found","Nashville-Davidson","Tennessee","37213","United States of America"
"1704","House Number Not Found","Hill Street","Rocky Mount","North Carolina","27801","United States of America"
"1705","House Number Not Found","Street Not Found","Bay Lake","Florida","Postcode Not Found","United States of America"
"1707","House Number Not Found","Street Not Found","Sierra Madre","California","91024","United States of America"
"1710","House Number Not Found","Street Not Found","Phoenix","Arizona","85004","United States of America"
"1711","House Number Not Found","Street Not Found","Fresno","California","93702","United States of America"
"1713","House Number Not Found","Street Not Found","West Liberty","Ohio","Postcode Not Found","United States of America"
"1714","House Number Not Found","Street Not Found","Tulsa","Oklahoma","74146","United States of America"
"1717","House Number Not Found","Street Not Found","Clermont","Georgia","30527","United States of America"
"1718","House Number Not Found","Street Not Found","Houston","Texas","77003:77007","United States of America"
"1720","1501","East 6th Street","Sterling","Illinois","61081","United States of America"
"1721","House Number Not Found","Street Not Found","Bensenville","Illinois","60106","United States of America"
"1722","388","Fulton Street","San Francisco","California","94102","United States of America"
"1723","House Number Not Found","Street Not Found","Columbus","Ohio","43054","United States of America"
"1726","House Number Not Found","Detroit Avenue","Lakewood","Ohio","44107","United States of America"
"1727","150","Greenwich Street","New York City","New York","10007","United States of America"
"1728","House Number Not Found","Street Not Found","Grapevine","Texas","75261","United States of America"
"1730","House Number Not Found","ryan lake Trail","Holbrook","Georgia","30155","United States of America"
"1734","House Number Not Found","Street Not Found","Coffeyville","Kansas","67337","United States of America"
"1735","House Number Not Found","Street Not Found","Philadelphia","Pennsylvania","19102","United States of America"
"1736","House Number Not Found","Wilson Avenue","New York City","New York","11207","United States of America"
"1738","309","East 11th Street","Austin","Texas","78701","United States of America"
"1739","515","North Range Line Road","Joplin","Missouri","64801","United States of America"
"1740","House Number Not Found","Morris Park Avenue","New York City","New York","10461","United States of America"
"1742","House Number Not Found","Street Not Found","West Liberty","Ohio","Postcode Not Found","United States of America"
"1747","House Number Not Found","Street Not Found","Eason","Oklahoma","74878","United States of America"
"1749","House Number Not Found","Borman Expressway","Hammond","Indiana","46324","United States of America"
"1751","277","East 2nd Street","Rochester","Michigan","48307","United States of America"
"1752","House Number Not Found","Street Not Found","Jefferson","Kansas","67340","United States of America"
"1753","House Number Not Found","Street Not Found","Fresno","California","93702","United States of America"
"1754","House Number Not Found","Street Not Found","Tetersburg","Indiana","46045","United States of America"
"1756","House Number Not Found","East Market Street","Warren","Ohio","OH 44481","United States of America"
"1758","3010","Veterans Memorial Highway","Bohemia","New York","11716","United States of America"
"1759","House Number Not Found","Street Not Found","Redhouse","Kentucky","Postcode Not Found","United States of America"
"1760","House Number Not Found","Street Not Found","Putnam Township","Michigan","48169","United States of America"
"1761","House Number Not Found","Street Not Found","Selma","Texas","78154","United States of America"
"1762","House Number Not Found","Street Not Found","Jefferson","Kansas","67340","United States of America"
"1763","House Number Not Found","Street Not Found","Tetersburg","Indiana","46045","United States of America"
"1766","House Number Not Found","South 8th Street","Murphysboro","Illinois","62966","United States of America"
"1770","House Number Not Found","Street Not Found","Philadelphia","Pennsylvania","19102","United States of America"
"1771","House Number Not Found","Street Not Found","Houma","Louisiana","70360","United States of America"
"1772","151","North Franklin Street","Chicago","Illinois","60606","United States of America"
"1774","House Number Not Found","Street Not Found","Tulsa","Oklahoma","74106","United States of America"
"1778","700","5th Avenue","Seattle","Washington","98104","United States of America"
"1779","House Number Not Found","Street Not Found","Virginia Beach","Virginia","23451","United States of America"
"1781","House Number Not Found","Street Not Found","Le Hunt","Kansas","67301","United States of America"
"1782","150","Greenwich Street","New York City","New York","10007","United States of America"
"1784","House Number Not Found","Street Not Found","Iowa City","Iowa","52240","United States of America"
"1785","House Number Not Found","Wilson Avenue","Bellmore","New York","11710","United States of America"
"1786","House Number Not Found","Street Not Found","Le Hunt","Kansas","67301","United States of America"
"1789","House Number Not Found","Street Not Found","Fremont","Ohio","43420","United States of America"
"1790","House Number Not Found","Street Not Found","North Guilford","Maine","Postcode Not Found","United States of America"
"1791","House Number Not Found","Street Not Found","Galveston","Texas","77550","United States of America"
"1794","House Number Not Found","Street Not Found","Level Corner","Pennsylvania","17744","United States of America"
"1795","House Number Not Found","Street Not Found","City Not Found","West Virginia","25113","United States of America"
"1796","House Number Not Found","Street Not Found","Sandusky","Ohio","44870","United States of America"
"1798","3586","HWY 71","Carroll","Louisiana","71019","United States of America"
"1799","House Number Not Found","Street Not Found","City Not Found","Iowa","50141","United States of America"
"1800","House Number Not Found","Street Not Found","Jefferson","Kansas","67340","United States of America"
"1801","House Number Not Found","Street Not Found","Independence","Kansas","67301","United States of America"
"1803","House Number Not Found","Street Not Found","City Not Found","Missouri","65401","United States of America"
"1805","700","5th Avenue","Seattle","Washington","98104","United States of America"
"1807","House Number Not Found","Street Not Found","Eagle Mountain","Utah","84005","United States of America"
"1808","750","North Hudson Avenue","Chicago","Illinois","60610","United States of America"
"1810","House Number Not Found","Street Not Found","City Not Found","Georgia","Postcode Not Found","United States of America"
"1812","House Number Not Found","Street Not Found","Chapel Hill","North Carolina","27516","United States of America"
"1816","201","South Broadway","Green Bay","Wisconsin","54303","United States of America"
"1817","800","West Frost Street","Plattsburg","Missouri","64477","United States of America"
"1819","1216 West Third Avenue","North Orchard Street","El Dorado","Kansas","67042","United States of America"
"1821","House Number Not Found","Street Not Found","City Not Found","Georgia","Postcode Not Found","United States of America"
"1823","House Number Not Found","Street Not Found","Odessa","Texas","79761","United States of America"
"1825","26","City Center","Portland","Maine","04101","United States of America"
"1826","133","South 3rd Street","Louisville","Kentucky","40202","United States of America"
"1827","150","Greenwich Street","New York City","New York","10007","United States of America"
"1828","House Number Not Found","Street Not Found","Atlanta","Georgia","30303","United States of America"
"1830","7999","Regents Drive","College Park","Maryland","20742","United States of America"
"1831","House Number Not Found","Street Not Found","Saint Cloud","Minnesota","56303","United States of America"
"1832","House Number Not Found","Street Not Found","Jefferson","Kansas","67340","United States of America"
"1837","House Number Not Found","Street Not Found","Kent","Ohio","44240","United States of America"
"1838","150","Greenwich Street","New York City","New York","10007","United States of America"
"1841","309","East 11th Street","Austin","Texas","78701","United States of America"
"1843","House Number Not Found","Street Not Found","Indianapolis","Indiana","46225","United States of America"
"1844","House Number Not Found","Street Not Found","Coffeyville","Kansas","67337","United States of America"
"1845","House Number Not Found","East Pine Street","Dunmore","Pennsylvania","18512","United States of America"
"1849","House Number Not Found","West Oglethorpe Avenue","Savannah","Georgia","31401","United States of America"
"1851","350","Canal Walk","Indianapolis","Indiana","46202","United States of America"
"1854","800","South Victoria Avenue","Ventura","California","93009","United States of America"
"1855","House Number Not Found","Street Not Found","Round Rock","Texas","78664","United States of America"
"1856","150","Greenwich Street","New York City","New York","10007","United States of America"
"1857","House Number Not Found","Street Not Found","Vinton","Virginia","24179","United States of America"
"1858","House Number Not Found","Street Not Found","Jefferson","Kansas","67340","United States of America"
"1859","House Number Not Found","Street Not Found","Raleigh","North Carolina","27603","United States of America"
"1860","House Number Not Found","Street Not Found","Sherwood","Arkansas","72116","United States of America"
"1863","27460","Pacific Coast Highway","Malibu","California","90265","United States of America"
"1865","House Number Not Found","Street Not Found","City Not Found","Missouri","65401","United States of America"
"1866","House Number Not Found","Street Not Found","Hillcrest","Indiana","47112","United States of America"
"1867","700","5th Avenue","Seattle","Washington","98104","United States of America"
"1868","House Number Not Found","Street Not Found","Bay Lake","Florida","32830-8426","United States of America"
"1870","688","Columbus Avenue","New York City","New York","10025","United States of America"
"1871","House Number Not Found","Street Not Found","Minneapolis","Minnesota","55401","United States of America"
"1872","House Number Not Found","Street Not Found","City Not Found","Louisiana","71362","United States of America"
"1877","House Number Not Found","Street Not Found","Sliders","Virginia","Postcode Not Found","United States of America"
"1878","House Number Not Found","Street Not Found","Tanager Forest","Maryland","21108","United States of America"
"1880","House Number Not Found","Street Not Found","Fresno","California","93702","United States of America"
"1881","House Number Not Found","Street Not Found","Portland","Oregon","97258","United States of America"
"1883","House Number Not Found","Campus Drive","Madison","New Jersey","07940","United States of America"
"1884","House Number Not Found","Classon Avenue","New York City","New York","11238","United States of America"
"1885","House Number Not Found","Street Not Found","Atlanta","Georgia","30303","United States of America"
"1886","House Number Not Found","Street Not Found","Salem","Oregon","97301","United States of America"
"1887","House Number Not Found","Street Not Found","Conway","Arkansas","72034","United States of America"
"1889","House Number Not Found","Street Not Found","Stanwood","Washington","Postcode Not Found","United States of America"
"1890","House Number Not Found","Old Barnstable Road South Section","Barnstable","Massachusetts","02601-5542","United States of America"
"1892","1304","Elati Street","Denver","Colorado","80204","United States of America"
"1893","309","East 11th Street","Austin","Texas","78701","United States of America"
"1894","House Number Not Found","Street Not Found","Minneapolis","Minnesota","55401","United States of America"
"1895","House Number Not Found","Street Not Found","Houston","Texas","77003:77007","United States of America"
"1896","House Number Not Found","Street Not Found","Oakville","Connecticut","06795","United States of America"
"1900","House Number Not Found","Street Not Found","Jefferson","Kansas","67340","United States of America"
"1901","House Number Not Found","Street Not Found","Houston","Texas","77003:77007","United States of America"
"1903","House Number Not Found","Street Not Found","Plumsted Township","New Jersey","08533","United States of America"
"1906","House Number Not Found","White Plains Road","Town of Eastchester","New York","10709","United States of America"
"1909","House Number Not Found","Street Not Found","Hickory Hills","Tennessee","37067","United States of America"
"1913","House Number Not Found","Main Street","Waltham","Massachusetts","MA 02453","United States of America"
"1914","150","Greenwich Street","New York City","New York","10007","United States of America"
"1917","House Number Not Found","Street Not Found","North Las Vegas","Nevada","NV 89030","United States of America"
"1918","700","5th Avenue","Seattle","Washington","98104","United States of America"
"1919","House Number Not Found","Street Not Found","Cleveland","Oklahoma","74020","United States of America"
"1920","House Number Not Found","Street Not Found","New Orleans","Louisiana","70012","United States of America"
"1921","House Number Not Found","Street Not Found","Houston","Texas","77003:77007","United States of America"
"1922","House Number Not Found","Street Not Found","Minneapolis","Minnesota","55401","United States of America"
"1924","House Number Not Found","Street Not Found","Amelia","Ohio","45102","United States of America"
"1926","House Number Not Found","Street Not Found","Jefferson","Kansas","67340","United States of America"
"1927","House Number Not Found","Buhl Street North","Twin Falls","Idaho","83301","United States of America"
"1928","House Number Not Found","Street Not Found","Oklahoma City","Oklahoma","73102:73104","United States of America"
"1929","House Number Not Found","College Avenue","Lima","Ohio","45805","United States of America"
"1930","House Number Not Found","Goode Street","Bristol","Virginia","37625","United States of America"
"1931","House Number Not Found","Street Not Found","Jefferson","Kansas","67340","United States of America"
"1932","170","Pike Street","Dayton","Nevada","89403-6604","United States of America"
"1933","House Number Not Found","West 16th Street","North Little Rock","Arkansas","72114","United States of America"
"1934","House Number Not Found","Street Not Found","West Liberty","Ohio","Postcode Not Found","United States of America"
"1937","700","5th Avenue","Seattle","Washington","98104","United States of America"
"1938","House Number Not Found","Street Not Found","Germantown","Maryland","20874","United States of America"
"1940","House Number Not Found","Street Not Found","Jefferson","Kansas","67340","United States of America"
"1942","House Number Not Found","3rd Street","Detroit","Michigan","48226","United States of America"
"1943","House Number Not Found","Street Not Found","Charleston","South Carolina","29401","United States of America"
"1946","House Number Not Found","Street Not Found","Beaumont","Texas","77702","United States of America"
"1949","House Number Not Found","Street Not Found","Bay Lake","Florida","Postcode Not Found","United States of America"
"1950","House Number Not Found","Street Not Found","Casselberry","Florida","32792","United States of America"
"1951","House Number Not Found","Street Not Found","Tustin","California","92780","United States of America"
"1952","House Number Not Found","Street Not Found","Los Angeles","California","90012","United States of America"
"1953","House Number Not Found","Street Not Found","Portland","Oregon","97258","United States of America"
"1954","House Number Not Found","Street Not Found","Buffalo","New York","14202","United States of America"
"1958","House Number Not Found","Street Not Found","West Liberty","Ohio","Postcode Not Found","United States of America"
"1959","30712","Lyon Center East Drive","Lyon Township","Michigan","48165","United States of America"
"1960","House Number Not Found","Street Not Found","Rome","Georgia","30161","United States of America"
"1961","House Number Not Found","Street Not Found","Oregon City","Oregon","97045","United States of America"
"1965","House Number Not Found","Street Not Found","Jefferson","New York","12093","United States of America"
"1966","House Number Not Found","Street Not Found","Minneapolis","Minnesota","55401","United States of America"
"1969","House Number Not Found","Street Not Found","College Station","Texas","77841","United States of America"
"1970","150","Greenwich Street","New York City","New York","10007","United States of America"
"1971","House Number Not Found","Street Not Found","Falls Township","Pennsylvania","19030-4005","United States of America"
"1974","House Number Not Found","Street Not Found","Colburn","Indiana","46536","United States of America"
"1975","1392","Atlantic Avenue","New York City","New York","11216","United States of America"
"1977","House Number Not Found","Center Road","Fairborn","Ohio","45433","United States of America"
"1978","House Number Not Found","Street Not Found","Madrid","Iowa","50156","United States of America"
"1979","House Number Not Found","Street Not Found","Minneapolis","Minnesota","55413","United States of America"
"1982","House Number Not Found","Street Not Found","Houston","Texas","77003:77007","United States of America"
"1986","House Number Not Found","Street Not Found","Fresno","California","93702","United States of America"
"1991","House Number Not Found","Street Not Found","Jefferson","Kansas","67340","United States of America"
"1992","1900","Commerce Street","Tacoma","Washington","98402","United States of America"
"1995","House Number Not Found","Lexington Avenue","San Antonio","Texas","78205","United States of America"
"1997","House Number Not Found","Main Street","Hackensack","New Jersey","07661","United States of America"
"2000","House Number Not Found","Street Not Found","Hope","New York","Postcode Not Found","United States of America"
"2002","House Number Not Found","West Side Highway","Sacramento","California","95814","United States of America"
"2003","1","Federal Street","Boston","Massachusetts","02110-1301","United States of America"
"2004","House Number Not Found","West Side Highway","Sacramento","California","95814","United States of America"
"2005","House Number Not Found","Street Not Found","Jefferson","Kansas","67340","United States of America"
"2008","House Number Not Found","Street Not Found","City of Saginaw","Michigan","48602","United States of America"
"2009","House Number Not Found","Street Not Found","Tetersburg","Indiana","46045","United States of America"
"2010","House Number Not Found","Street Not Found","Jefferson","Kansas","67340","United States of America"
"2011","House Number Not Found","College Avenue","Lima","Ohio","45805","United States of America"
"2012","1","South Main Street","Salinas","California","93901","United States of America"
"2016","House Number Not Found","Street Not Found","Jefferson","Kansas","67340","United States of America"
"2020","House Number Not Found","Street Not Found","San Diego","California","92093","United States of America"
"2022","House Number Not Found","Street Not Found","England Run","Virginia","22406","United States of America"
"2024","House Number Not Found","Street Not Found","Jefferson","Kansas","67340","United States of America"
"2025","700","5th Avenue","Seattle","Washington","98104","United States of America"
"2026","House Number Not Found","Street Not Found","Washington","District of Columbia","20420","United States of America"
"2028","House Number Not Found","Street Not Found","Washington","District of Columbia","20420","United States of America"
"2029","House Number Not Found","Street Not Found","Salt Lake City","Utah","84139","United States of America"
